{
"type": "FeatureCollection",
"name": "sql_statement",
"crs": { "type": "name", "properties": { "name": "urn:ogc:def:crs:OGC:1.3:CRS84" } },
"features": [
{ "type": "Feature", "properties": { "id": 1, "blockid20": [ "120010015191004" ], "osm_id": 265892139, "supermarket_name": "Publix", "pop_low_stress": 8657, "pop_high_stress": 28433, "pop_score": 0.30447015791509863 }, "geometry": { "type": "Point", "coordinates": [ -82.37282860688677, 29.604996929848024 ] } },
{ "type": "Feature", "properties": { "id": 2, "blockid20": [ "120010006001004", "120010006001001" ], "osm_id": 169001177, "supermarket_name": "Walmart Supercenter", "pop_low_stress": 891, "pop_high_stress": 16858, "pop_score": 0.052853244750266933 }, "geometry": { "type": "Point", "coordinates": [ -82.301096730085192, 29.663994033240151 ] } },
{ "type": "Feature", "properties": { "id": 3, "blockid20": [ "120010003011003" ], "osm_id": 435066979, "supermarket_name": "Ward's Supermarket", "pop_low_stress": 401, "pop_high_stress": 21962, "pop_score": 0.018258810672980602 }, "geometry": { "type": "Point", "coordinates": [ -82.329830984052919, 29.673510382684427 ] } },
{ "type": "Feature", "properties": { "id": 4, "blockid20": [ "120010003012053" ], "osm_id": 859054353, "supermarket_name": "Chun Ching Supermarket", "pop_low_stress": 2593, "pop_high_stress": 37793, "pop_score": 0.068610589262561847 }, "geometry": { "type": "Point", "coordinates": [ -82.329294791519047, 29.659893576536593 ] } },
{ "type": "Feature", "properties": { "id": 5, "blockid20": [ "120010003012022" ], "osm_id": 260712961, "supermarket_name": "Publix", "pop_low_stress": 2072, "pop_high_stress": 36825, "pop_score": 0.056266123557365919 }, "geometry": { "type": "Point", "coordinates": [ -82.325744905240981, 29.663938600748249 ] } },
{ "type": "Feature", "properties": { "id": 6, "blockid20": [ "120010008062002" ], "osm_id": 492223410, "supermarket_name": "Aldi", "pop_low_stress": 4627, "pop_high_stress": 37294, "pop_score": 0.12406821472622942 }, "geometry": { "type": "Point", "coordinates": [ -82.329080873596041, 29.637441606320561 ] } },
{ "type": "Feature", "properties": { "id": 13, "blockid20": [ "120010003023001" ], "osm_id": 4555989165, "supermarket_name": "ALDI", "pop_low_stress": 815, "pop_high_stress": 19651, "pop_score": 0.04147371635031296 }, "geometry": { "type": "Point", "coordinates": [ -82.3382855, 29.6877097 ] } },
{ "type": "Feature", "properties": { "id": 19, "blockid20": [ "120010015224019" ], "osm_id": 8010397659, "supermarket_name": "Whole Foods Market", "pop_low_stress": 1870, "pop_high_stress": 28609, "pop_score": 0.065364046279142926 }, "geometry": { "type": "Point", "coordinates": [ -82.3761087, 29.6254351 ] } },
{ "type": "Feature", "properties": { "id": 20, "blockid20": [ "120010016052013" ], "osm_id": 8007744025, "supermarket_name": "La Aurora Latin Market", "pop_low_stress": 2383, "pop_high_stress": 18729, "pop_score": 0.12723583747130118 }, "geometry": { "type": "Point", "coordinates": [ -82.3790033, 29.6512452 ] } },
{ "type": "Feature", "properties": { "id": 22, "blockid20": [ "120010015224012" ], "osm_id": 647104678, "supermarket_name": "Publix", "pop_low_stress": 1929, "pop_high_stress": 26469, "pop_score": 0.072877705995693071 }, "geometry": { "type": "Point", "coordinates": [ -82.3822264, 29.6216324 ] } },
{ "type": "Feature", "properties": { "id": 23, "blockid20": [ "120010015221001" ], "osm_id": 13071300791, "supermarket_name": "Pepe's Grocery", "pop_low_stress": 3036, "pop_high_stress": 19319, "pop_score": 0.15715099125213519 }, "geometry": { "type": "Point", "coordinates": [ -82.387577400000012, 29.6358821 ] } },
{ "type": "Feature", "properties": { "id": 24, "blockid20": [ "120010011002011" ], "osm_id": 3878961493, "supermarket_name": "The Fresh Market", "pop_low_stress": 1250, "pop_high_stress": 9380, "pop_score": 0.13326226012793177 }, "geometry": { "type": "Point", "coordinates": [ -82.387116, 29.6745693 ] } },
{ "type": "Feature", "properties": { "id": 25, "blockid20": [ "120010017021000" ], "osm_id": 4636110787, "supermarket_name": "Publix", "pop_low_stress": 1380, "pop_high_stress": 9948, "pop_score": 0.13872135102533173 }, "geometry": { "type": "Point", "coordinates": [ -82.3873321, 29.6721758 ] } },
{ "type": "Feature", "properties": { "id": 26, "blockid20": [ "120010018112000" ], "osm_id": 1314649657, "supermarket_name": "Publix", "pop_low_stress": 1886, "pop_high_stress": 8578, "pop_score": 0.21986477034273724 }, "geometry": { "type": "Point", "coordinates": [ -82.3906124, 29.7019274 ] } },
{ "type": "Feature", "properties": { "id": 7, "blockid20": [ "120010002013007" ], "osm_id": 667560832, "supermarket_name": "Publix", "pop_low_stress": 1509, "pop_high_stress": 42780, "pop_score": 0.03527349228611501 }, "geometry": { "type": "Point", "coordinates": [ -82.33885875693251, 29.653537391890218 ] } },
{ "type": "Feature", "properties": { "id": 8, "blockid20": [ "120010018033025" ], "osm_id": 399347593, "supermarket_name": "Walmart Supercenter", "pop_low_stress": 1708, "pop_high_stress": 13702, "pop_score": 0.12465333527952124 }, "geometry": { "type": "Point", "coordinates": [ -82.356454252337187, 29.708415798234025 ] } },
{ "type": "Feature", "properties": { "id": 9, "blockid20": [ "120010010002019" ], "osm_id": 196848220, "supermarket_name": "Publix", "pop_low_stress": 1985, "pop_high_stress": 24266, "pop_score": 0.081801697848842003 }, "geometry": { "type": "Point", "coordinates": [ -82.37126477871503, 29.650970777709105 ] } },
{ "type": "Feature", "properties": { "id": 10, "blockid20": [ "120010015224004" ], "osm_id": 112286336, "supermarket_name": "Publix", "pop_low_stress": 495, "pop_high_stress": 27392, "pop_score": 0.018070969626168224 }, "geometry": { "type": "Point", "coordinates": [ -82.379162255193606, 29.625071541493941 ] } },
{ "type": "Feature", "properties": { "id": 11, "blockid20": [ "120010015224000" ], "osm_id": 531814908, "supermarket_name": "ALDI", "pop_low_stress": 4882, "pop_high_stress": 34035, "pop_score": 0.14344057587777287 }, "geometry": { "type": "Point", "coordinates": [ -82.381816347113386, 29.626284172335293 ] } },
{ "type": "Feature", "properties": { "id": 12, "blockid20": [ "120010015224008", "120010015224016" ], "osm_id": 433529010, "supermarket_name": "Walmart Supercenter", "pop_low_stress": 1363, "pop_high_stress": 20573, "pop_score": 0.066251883536674286 }, "geometry": { "type": "Point", "coordinates": [ -82.388359352520226, 29.627247084008314 ] } },
{ "type": "Feature", "properties": { "id": 14, "blockid20": [ "120010012031033" ], "osm_id": 6352665227, "supermarket_name": "Publix", "pop_low_stress": 694, "pop_high_stress": 17318, "pop_score": 0.040073911537128998 }, "geometry": { "type": "Point", "coordinates": [ -82.3407689, 29.6874469 ] } },
{ "type": "Feature", "properties": { "id": 15, "blockid20": [ "120010011003012" ], "osm_id": 4197577240, "supermarket_name": "Winn-Dixie", "pop_low_stress": 2920, "pop_high_stress": 25703, "pop_score": 0.11360541571022838 }, "geometry": { "type": "Point", "coordinates": [ -82.3405992, 29.6729119 ] } },
{ "type": "Feature", "properties": { "id": 16, "blockid20": [ "120010015153007" ], "osm_id": 8007744026, "supermarket_name": "Asian Food Market", "pop_low_stress": 3842, "pop_high_stress": 28273, "pop_score": 0.13588936441127578 }, "geometry": { "type": "Point", "coordinates": [ -82.3710036, 29.623918 ] } },
{ "type": "Feature", "properties": { "id": 17, "blockid20": [ "120010015153002" ], "osm_id": 10908780105, "supermarket_name": "Enson Market", "pop_low_stress": 6839, "pop_high_stress": 33088, "pop_score": 0.20669124758220503 }, "geometry": { "type": "Point", "coordinates": [ -82.3703425, 29.6252742 ] } },
{ "type": "Feature", "properties": { "id": 18, "blockid20": [ "120010015191002" ], "osm_id": 8007744027, "supermarket_name": "India Bazaar", "pop_low_stress": 4008, "pop_high_stress": 30053, "pop_score": 0.13336438957841149 }, "geometry": { "type": "Point", "coordinates": [ -82.3736425, 29.6212475 ] } },
{ "type": "Feature", "properties": { "id": 21, "blockid20": [ "120010015224017" ], "osm_id": 4214721862, "supermarket_name": "Trader Joe's", "pop_low_stress": 2871, "pop_high_stress": 26779, "pop_score": 0.10721087419246425 }, "geometry": { "type": "Point", "coordinates": [ -82.3798985, 29.6232552 ] } }
]
}
