{
"type": "FeatureCollection",
"name": "sql_statement",
"crs": { "type": "name", "properties": { "name": "urn:ogc:def:crs:OGC:1.3:CRS84" } },
"features": [
{ "type": "Feature", "properties": { "id": 53, "blockid20": [ "120010012025000" ], "osm_id": null, "park_name": null, "pop_low_stress": 3578, "pop_high_stress": 22323, "pop_score": 0.16028311606862877 }, "geometry": { "type": "Point", "coordinates": [ -82.35264854480404, 29.700488796179918 ] } },
{ "type": "Feature", "properties": { "id": 14, "blockid20": [ "120010007003043", "120010007003032" ], "osm_id": null, "park_name": null, "pop_low_stress": 154, "pop_high_stress": 6910, "pop_score": 0.022286541244573084 }, "geometry": { "type": "Point", "coordinates": [ -82.304556488113022, 29.633366579518597 ] } },
{ "type": "Feature", "properties": { "id": 15, "blockid20": [ "120010005001104", "120010007001024" ], "osm_id": null, "park_name": null, "pop_low_stress": 335, "pop_high_stress": 30381, "pop_score": 0.011026628484908331 }, "geometry": { "type": "Point", "coordinates": [ -82.313882993250559, 29.647522437987462 ] } },
{ "type": "Feature", "properties": { "id": 8, "blockid20": [ "120010006002000" ], "osm_id": null, "park_name": null, "pop_low_stress": 414, "pop_high_stress": 15454, "pop_score": 0.026789180794616282 }, "geometry": { "type": "Point", "coordinates": [ -82.30286710913785, 29.658369663218785 ] } },
{ "type": "Feature", "properties": { "id": 13, "blockid20": [ "120010004002026" ], "osm_id": null, "park_name": null, "pop_low_stress": 288, "pop_high_stress": 17486, "pop_score": 0.016470319112432803 }, "geometry": { "type": "Point", "coordinates": [ -82.307068945657207, 29.669400681200706 ] } },
{ "type": "Feature", "properties": { "id": 10, "blockid20": [ "120010004001011" ], "osm_id": null, "park_name": null, "pop_low_stress": 1465, "pop_high_stress": 12642, "pop_score": 0.11588356272741655 }, "geometry": { "type": "Point", "coordinates": [ -82.305118899000576, 29.675938863550034 ] } },
{ "type": "Feature", "properties": { "id": 16, "blockid20": [ "120010005004000" ], "osm_id": null, "park_name": null, "pop_low_stress": 623, "pop_high_stress": 23501, "pop_score": 0.026509510233607082 }, "geometry": { "type": "Point", "coordinates": [ -82.310898239268397, 29.658084117916246 ] } },
{ "type": "Feature", "properties": { "id": 17, "blockid20": [ "120010005003004" ], "osm_id": null, "park_name": null, "pop_low_stress": 644, "pop_high_stress": 26626, "pop_score": 0.024186884999624427 }, "geometry": { "type": "Point", "coordinates": [ -82.320314633153387, 29.665232082706616 ] } },
{ "type": "Feature", "properties": { "id": 37, "blockid20": [ "120010009021015" ], "osm_id": null, "park_name": null, "pop_low_stress": 11027, "pop_high_stress": 39393, "pop_score": 0.27992282892899756 }, "geometry": { "type": "Point", "coordinates": [ -82.342026377930509, 29.642666495302148 ] } },
{ "type": "Feature", "properties": { "id": 31, "blockid20": [ "120010002022001" ], "osm_id": null, "park_name": null, "pop_low_stress": 1752, "pop_high_stress": 40272, "pop_score": 0.043504171632896306 }, "geometry": { "type": "Point", "coordinates": [ -82.333343187694027, 29.64765852275665 ] } },
{ "type": "Feature", "properties": { "id": 26, "blockid20": [ "120010005001086" ], "osm_id": null, "park_name": null, "pop_low_stress": 182, "pop_high_stress": 37972, "pop_score": 0.0047930053723796483 }, "geometry": { "type": "Point", "coordinates": [ -82.325456256220789, 29.647665386580332 ] } },
{ "type": "Feature", "properties": { "id": 67, "blockid20": [ "120010016051021", "120010016051000" ], "osm_id": null, "park_name": null, "pop_low_stress": 6534, "pop_high_stress": 29576, "pop_score": 0.22092236948877469 }, "geometry": { "type": "Point", "coordinates": [ -82.382928484931739, 29.645281135802719 ] } },
{ "type": "Feature", "properties": { "id": 3, "blockid20": [ "120010006003000", "120010014002006", "120010006001017", "120010006003005", "120010014002011", "120010014002003", "120010014002004", "120010006001000" ], "osm_id": null, "park_name": null, "pop_low_stress": null, "pop_high_stress": null, "pop_score": null }, "geometry": { "type": "Point", "coordinates": [ -82.273569942729722, 29.665371183142295 ] } },
{ "type": "Feature", "properties": { "id": 11, "blockid20": [ "120010005002009", "120010005002007", "120010005002002", "120010005002036", "120010005002008", "120010005002010" ], "osm_id": null, "park_name": null, "pop_low_stress": 866, "pop_high_stress": 22994, "pop_score": 0.037661998782291033 }, "geometry": { "type": "Point", "coordinates": [ -82.307538466197116, 29.661795522084621 ] } },
{ "type": "Feature", "properties": { "id": 12, "blockid20": [ "120010004002026" ], "osm_id": null, "park_name": null, "pop_low_stress": 288, "pop_high_stress": 17486, "pop_score": 0.016470319112432803 }, "geometry": { "type": "Point", "coordinates": [ -82.309466813522761, 29.669728144543161 ] } },
{ "type": "Feature", "properties": { "id": 65, "blockid20": [ "120010017021016", "120010017021017" ], "osm_id": null, "park_name": null, "pop_low_stress": 729, "pop_high_stress": 11471, "pop_score": 0.063551564815622005 }, "geometry": { "type": "Point", "coordinates": [ -82.381090316372493, 29.666011769996661 ] } },
{ "type": "Feature", "properties": { "id": 4, "blockid20": [ "120010020012023", "120010019022020", "120010014002000" ], "osm_id": null, "park_name": null, "pop_low_stress": 0, "pop_high_stress": 846, "pop_score": 0.0 }, "geometry": { "type": "Point", "coordinates": [ -82.237921773874191, 29.683713410800461 ] } },
{ "type": "Feature", "properties": { "id": 5, "blockid20": [ "120010006003026" ], "osm_id": null, "park_name": null, "pop_low_stress": 512, "pop_high_stress": 7343, "pop_score": 0.06972626991692768 }, "geometry": { "type": "Point", "coordinates": [ -82.287791118762001, 29.649805671855326 ] } },
{ "type": "Feature", "properties": { "id": 6, "blockid20": [ "120010006003009" ], "osm_id": null, "park_name": null, "pop_low_stress": 1074, "pop_high_stress": 14109, "pop_score": 0.07612162449500319 }, "geometry": { "type": "Point", "coordinates": [ -82.295871336227435, 29.656394967386117 ] } },
{ "type": "Feature", "properties": { "id": 71, "blockid20": [ "120010017022016" ], "osm_id": null, "park_name": null, "pop_low_stress": 1143, "pop_high_stress": 11674, "pop_score": 0.097909885215007708 }, "geometry": { "type": "Point", "coordinates": [ -82.394716004968899, 29.661852341395207 ] } },
{ "type": "Feature", "properties": { "id": 1, "blockid20": [ "120010022191001", "120010022191021", "120010022192010", "120010022192001", "120010022191017", "120010022192008", "120010022191025" ], "osm_id": null, "park_name": null, "pop_low_stress": null, "pop_high_stress": null, "pop_score": null }, "geometry": { "type": "Point", "coordinates": [ -82.404749817611346, 29.626176829123121 ] } },
{ "type": "Feature", "properties": { "id": 2, "blockid20": [ "120010008083014", "120010008083008", "120010007002079", "120010021011012", "120010008083001", "120010007002087", "120010021011014" ], "osm_id": null, "park_name": null, "pop_low_stress": null, "pop_high_stress": null, "pop_score": null }, "geometry": { "type": "Point", "coordinates": [ -82.29136289000536, 29.61111669464773 ] } },
{ "type": "Feature", "properties": { "id": 9, "blockid20": [ "120010004001002" ], "osm_id": null, "park_name": null, "pop_low_stress": 1710, "pop_high_stress": 10298, "pop_score": 0.16605166051660517 }, "geometry": { "type": "Point", "coordinates": [ -82.302617133162414, 29.681940731835343 ] } },
{ "type": "Feature", "properties": { "id": 18, "blockid20": [ "120010005005030", "120010005005037", "120010005001026", "120010005005038", "120010005005029" ], "osm_id": null, "park_name": null, "pop_low_stress": 326, "pop_high_stress": 38878, "pop_score": 0.0083852050002572141 }, "geometry": { "type": "Point", "coordinates": [ -82.320050285391247, 29.653291873838555 ] } },
{ "type": "Feature", "properties": { "id": 19, "blockid20": [ "120010007002079" ], "osm_id": null, "park_name": null, "pop_low_stress": 541, "pop_high_stress": 17323, "pop_score": 0.031230156439415804 }, "geometry": { "type": "Point", "coordinates": [ -82.316475316969203, 29.632179444304779 ] } },
{ "type": "Feature", "properties": { "id": 20, "blockid20": [ "120010005001030", "120010005001110" ], "osm_id": null, "park_name": null, "pop_low_stress": 262, "pop_high_stress": 38389, "pop_score": 0.0068248717080413657 }, "geometry": { "type": "Point", "coordinates": [ -82.320183744674907, 29.650649951928049 ] } },
{ "type": "Feature", "properties": { "id": 32, "blockid20": [ "120010002023005", "120010002023002" ], "osm_id": null, "park_name": null, "pop_low_stress": 2293, "pop_high_stress": 39053, "pop_score": 0.058715079507336183 }, "geometry": { "type": "Point", "coordinates": [ -82.335750291612612, 29.643870800366852 ] } },
{ "type": "Feature", "properties": { "id": 72, "blockid20": [ "120010022173011" ], "osm_id": null, "park_name": null, "pop_low_stress": null, "pop_high_stress": null, "pop_score": null }, "geometry": { "type": "Point", "coordinates": [ -82.409581951088555, 29.645948794261717 ] } },
{ "type": "Feature", "properties": { "id": 7, "blockid20": [ "120010006001011", "120010006001003" ], "osm_id": null, "park_name": null, "pop_low_stress": 475, "pop_high_stress": 9548, "pop_score": 0.049748638458315876 }, "geometry": { "type": "Point", "coordinates": [ -82.295870758646714, 29.663490296394531 ] } },
{ "type": "Feature", "properties": { "id": 73, "blockid20": [ "120010022181005" ], "osm_id": null, "park_name": null, "pop_low_stress": 24, "pop_high_stress": 4439, "pop_score": 0.005406623113313809 }, "geometry": { "type": "Point", "coordinates": [ -82.41595882508426, 29.639402546500548 ] } },
{ "type": "Feature", "properties": { "id": 38, "blockid20": [ "120010009021009", "120010009021001", "120010009021000", "120010009021012" ], "osm_id": null, "park_name": null, "pop_low_stress": 9844, "pop_high_stress": 42667, "pop_score": 0.23071694752384747 }, "geometry": { "type": "Point", "coordinates": [ -82.342731177764961, 29.649888806893557 ] } },
{ "type": "Feature", "properties": { "id": 21, "blockid20": [ "120010007002013", "120010005001109", "120010007002014", "120010007002012" ], "osm_id": null, "park_name": null, "pop_low_stress": 2367, "pop_high_stress": 37625, "pop_score": 0.062910299003322262 }, "geometry": { "type": "Point", "coordinates": [ -82.323224728771052, 29.643162303889856 ] } },
{ "type": "Feature", "properties": { "id": 22, "blockid20": [ "120010005001046", "120010005001047" ], "osm_id": null, "park_name": null, "pop_low_stress": 29, "pop_high_stress": 38883, "pop_score": 0.00074582722526554018 }, "geometry": { "type": "Point", "coordinates": [ -82.323919914598363, 29.651484073246721 ] } },
{ "type": "Feature", "properties": { "id": 23, "blockid20": [ "120010005005022" ], "osm_id": null, "park_name": null, "pop_low_stress": 88, "pop_high_stress": 36288, "pop_score": 0.0024250440917107582 }, "geometry": { "type": "Point", "coordinates": [ -82.322755699808184, 29.655203925353838 ] } },
{ "type": "Feature", "properties": { "id": 24, "blockid20": [ "120010003012049" ], "osm_id": null, "park_name": null, "pop_low_stress": 223, "pop_high_stress": 37211, "pop_score": 0.0059928515761468381 }, "geometry": { "type": "Point", "coordinates": [ -82.329129838006082, 29.660914274217394 ] } },
{ "type": "Feature", "properties": { "id": 25, "blockid20": [ "120010002011009" ], "osm_id": null, "park_name": null, "pop_low_stress": 190, "pop_high_stress": 35166, "pop_score": 0.0054029460274128416 }, "geometry": { "type": "Point", "coordinates": [ -82.327241496164163, 29.655954529793458 ] } },
{ "type": "Feature", "properties": { "id": 27, "blockid20": [ "120010002021020", "120010002021019" ], "osm_id": null, "park_name": null, "pop_low_stress": 246, "pop_high_stress": 37295, "pop_score": 0.0065960584528757206 }, "geometry": { "type": "Point", "coordinates": [ -82.327094548922574, 29.646804148438594 ] } },
{ "type": "Feature", "properties": { "id": 28, "blockid20": [ "120010002021023" ], "osm_id": null, "park_name": null, "pop_low_stress": 161, "pop_high_stress": 36426, "pop_score": 0.004419919837478724 }, "geometry": { "type": "Point", "coordinates": [ -82.328845267439675, 29.645447934163585 ] } },
{ "type": "Feature", "properties": { "id": 29, "blockid20": [ "120010002021027", "120010002021026", "120010002021028" ], "osm_id": null, "park_name": null, "pop_low_stress": 5481, "pop_high_stress": 40941, "pop_score": 0.13387557704990108 }, "geometry": { "type": "Point", "coordinates": [ -82.331660009690907, 29.645507573677968 ] } },
{ "type": "Feature", "properties": { "id": 30, "blockid20": [ "120010008062004" ], "osm_id": null, "park_name": null, "pop_low_stress": 5829, "pop_high_stress": 37847, "pop_score": 0.15401484926150025 }, "geometry": { "type": "Point", "coordinates": [ -82.330966191121746, 29.637514513941841 ] } },
{ "type": "Feature", "properties": { "id": 33, "blockid20": [ "120010003012047" ], "osm_id": null, "park_name": null, "pop_low_stress": 215, "pop_high_stress": 38488, "pop_score": 0.0055861567241737688 }, "geometry": { "type": "Point", "coordinates": [ -82.333467524252654, 29.659944574855565 ] } },
{ "type": "Feature", "properties": { "id": 34, "blockid20": [ "120010012031002" ], "osm_id": null, "park_name": null, "pop_low_stress": 1247, "pop_high_stress": 20931, "pop_score": 0.059576704409727198 }, "geometry": { "type": "Point", "coordinates": [ -82.343948198668997, 29.698634275993278 ] } },
{ "type": "Feature", "properties": { "id": 35, "blockid20": [ "120010002022007" ], "osm_id": null, "park_name": null, "pop_low_stress": 8455, "pop_high_stress": 40590, "pop_score": 0.20830253757083025 }, "geometry": { "type": "Point", "coordinates": [ -82.338717583092816, 29.646670205374232 ] } },
{ "type": "Feature", "properties": { "id": 36, "blockid20": [ "120010009021012" ], "osm_id": null, "park_name": null, "pop_low_stress": 5521, "pop_high_stress": 41751, "pop_score": 0.13223635362027256 }, "geometry": { "type": "Point", "coordinates": [ -82.339811280655425, 29.648866325353112 ] } },
{ "type": "Feature", "properties": { "id": 39, "blockid20": [ "120010008091006", "120010008091004" ], "osm_id": null, "park_name": null, "pop_low_stress": 679, "pop_high_stress": 39307, "pop_score": 0.017274276846363242 }, "geometry": { "type": "Point", "coordinates": [ -82.341232388826441, 29.638590905654294 ] } },
{ "type": "Feature", "properties": { "id": 40, "blockid20": [ "120010009021020" ], "osm_id": null, "park_name": null, "pop_low_stress": 13036, "pop_high_stress": 43948, "pop_score": 0.29662328206061711 }, "geometry": { "type": "Point", "coordinates": [ -82.344737175863699, 29.641515011857813 ] } },
{ "type": "Feature", "properties": { "id": 41, "blockid20": [ "120010009021002" ], "osm_id": null, "park_name": null, "pop_low_stress": 5341, "pop_high_stress": 37992, "pop_score": 0.14058222783743946 }, "geometry": { "type": "Point", "coordinates": [ -82.345619866810665, 29.651071934046048 ] } },
{ "type": "Feature", "properties": { "id": 52, "blockid20": [ "120010010003038", "120010009021005" ], "osm_id": null, "park_name": null, "pop_low_stress": 9587, "pop_high_stress": 35511, "pop_score": 0.2699726845202895 }, "geometry": { "type": "Point", "coordinates": [ -82.354378063895695, 29.651488774170353 ] } },
{ "type": "Feature", "properties": { "id": 42, "blockid20": [ "120010009021007" ], "osm_id": null, "park_name": null, "pop_low_stress": 11267, "pop_high_stress": 42759, "pop_score": 0.26350008185411261 }, "geometry": { "type": "Point", "coordinates": [ -82.346246279272322, 29.647228976059143 ] } },
{ "type": "Feature", "properties": { "id": 43, "blockid20": [ "120010011003007", "120010011003028", "120010011003008" ], "osm_id": null, "park_name": null, "pop_low_stress": 3195, "pop_high_stress": 35871, "pop_score": 0.089069164506147033 }, "geometry": { "type": "Point", "coordinates": [ -82.346405152780051, 29.670742677330466 ] } },
{ "type": "Feature", "properties": { "id": 44, "blockid20": [ "120010012022018", "120010012022020" ], "osm_id": null, "park_name": null, "pop_low_stress": 2774, "pop_high_stress": 21617, "pop_score": 0.12832492945367072 }, "geometry": { "type": "Point", "coordinates": [ -82.349472749202519, 29.687120020642666 ] } },
{ "type": "Feature", "properties": { "id": 45, "blockid20": [ "120010012031039" ], "osm_id": null, "park_name": null, "pop_low_stress": 3187, "pop_high_stress": 25621, "pop_score": 0.1243901487061395 }, "geometry": { "type": "Point", "coordinates": [ -82.348541110522476, 29.68071973124221 ] } },
{ "type": "Feature", "properties": { "id": 46, "blockid20": [ "120010012031055", "120010012031057", "120010012031054", "120010012031056" ], "osm_id": null, "park_name": null, "pop_low_stress": 2804, "pop_high_stress": 17219, "pop_score": 0.16284337069516233 }, "geometry": { "type": "Point", "coordinates": [ -82.349688269403956, 29.682344643479496 ] } },
{ "type": "Feature", "properties": { "id": 47, "blockid20": [ "120010011003006" ], "osm_id": null, "park_name": null, "pop_low_stress": 2534, "pop_high_stress": 23850, "pop_score": 0.10624737945492663 }, "geometry": { "type": "Point", "coordinates": [ -82.351662531279644, 29.673774985796879 ] } },
{ "type": "Feature", "properties": { "id": 48, "blockid20": [ "120010010003014" ], "osm_id": null, "park_name": null, "pop_low_stress": 5207, "pop_high_stress": 38110, "pop_score": 0.1366308055628444 }, "geometry": { "type": "Point", "coordinates": [ -82.349718225128655, 29.656481306678213 ] } },
{ "type": "Feature", "properties": { "id": 49, "blockid20": [ "120010010003014" ], "osm_id": null, "park_name": null, "pop_low_stress": 5207, "pop_high_stress": 38110, "pop_score": 0.1366308055628444 }, "geometry": { "type": "Point", "coordinates": [ -82.348966577319558, 29.655991075318468 ] } },
{ "type": "Feature", "properties": { "id": 50, "blockid20": [ "120010009021006" ], "osm_id": null, "park_name": null, "pop_low_stress": 11152, "pop_high_stress": 40307, "pop_score": 0.27667650780261493 }, "geometry": { "type": "Point", "coordinates": [ -82.350924361466411, 29.645258929494705 ] } },
{ "type": "Feature", "properties": { "id": 51, "blockid20": [ "120010009021006" ], "osm_id": null, "park_name": null, "pop_low_stress": 11152, "pop_high_stress": 40307, "pop_score": 0.27667650780261493 }, "geometry": { "type": "Point", "coordinates": [ -82.35430941438986, 29.646580357923742 ] } },
{ "type": "Feature", "properties": { "id": 54, "blockid20": [ "120010012025000" ], "osm_id": null, "park_name": null, "pop_low_stress": 3578, "pop_high_stress": 22323, "pop_score": 0.16028311606862877 }, "geometry": { "type": "Point", "coordinates": [ -82.353822947053075, 29.697987053208379 ] } },
{ "type": "Feature", "properties": { "id": 55, "blockid20": [ "120010012023002" ], "osm_id": null, "park_name": null, "pop_low_stress": 852, "pop_high_stress": 16407, "pop_score": 0.051929054671786434 }, "geometry": { "type": "Point", "coordinates": [ -82.352133944618927, 29.707918525232579 ] } },
{ "type": "Feature", "properties": { "id": 56, "blockid20": [ "120010012021010" ], "osm_id": null, "park_name": null, "pop_low_stress": 3389, "pop_high_stress": 24155, "pop_score": 0.14030221486234734 }, "geometry": { "type": "Point", "coordinates": [ -82.362973824101019, 29.690947541619959 ] } },
{ "type": "Feature", "properties": { "id": 57, "blockid20": [ "120010010004006", "120010010002000", "120010010004008", "120010010004007", "120010010004001", "120010010002001", "120010010004000", "120010010002008", "120010010002018" ], "osm_id": null, "park_name": null, "pop_low_stress": 3814, "pop_high_stress": 50704, "pop_score": 0.075220889870621643 }, "geometry": { "type": "Point", "coordinates": [ -82.364625707377641, 29.66020389175603 ] } },
{ "type": "Feature", "properties": { "id": 58, "blockid20": [ "120010010002001" ], "osm_id": null, "park_name": null, "pop_low_stress": 1846, "pop_high_stress": 40413, "pop_score": 0.045678370821270381 }, "geometry": { "type": "Point", "coordinates": [ -82.357130948076517, 29.652653337487589 ] } },
{ "type": "Feature", "properties": { "id": 59, "blockid20": [ "120010009011009" ], "osm_id": null, "park_name": null, "pop_low_stress": 11827, "pop_high_stress": 55836, "pop_score": 0.21181674905079159 }, "geometry": { "type": "Point", "coordinates": [ -82.357091447924361, 29.641952492989212 ] } },
{ "type": "Feature", "properties": { "id": 60, "blockid20": [ "120010009011000" ], "osm_id": null, "park_name": null, "pop_low_stress": 12552, "pop_high_stress": 37195, "pop_score": 0.337464712999059 }, "geometry": { "type": "Point", "coordinates": [ -82.3600854867084, 29.649903496310927 ] } },
{ "type": "Feature", "properties": { "id": 61, "blockid20": [ "120010015141003", "120010015141005", "120010015141004" ], "osm_id": null, "park_name": null, "pop_low_stress": 13048, "pop_high_stress": 47802, "pop_score": 0.27295929040625916 }, "geometry": { "type": "Point", "coordinates": [ -82.368420905526477, 29.632316663640832 ] } },
{ "type": "Feature", "properties": { "id": 62, "blockid20": [ "120010009011006" ], "osm_id": null, "park_name": null, "pop_low_stress": 7499, "pop_high_stress": 30895, "pop_score": 0.24272536009062956 }, "geometry": { "type": "Point", "coordinates": [ -82.370809638211881, 29.641048607041395 ] } },
{ "type": "Feature", "properties": { "id": 63, "blockid20": [ "120010018132028", "120010018034005", "120010018034010", "120010018032016", "120010018131014", "120010018132027" ], "osm_id": null, "park_name": null, "pop_low_stress": 6540, "pop_high_stress": 18620, "pop_score": 0.35123523093447906 }, "geometry": { "type": "Point", "coordinates": [ -82.38220644151184, 29.721070922648014 ] } },
{ "type": "Feature", "properties": { "id": 64, "blockid20": [ "120010012011000", "120010012011009", "120010012011008" ], "osm_id": null, "park_name": null, "pop_low_stress": 5423, "pop_high_stress": 22081, "pop_score": 0.24559576106154613 }, "geometry": { "type": "Point", "coordinates": [ -82.382535503860467, 29.702197322602046 ] } },
{ "type": "Feature", "properties": { "id": 66, "blockid20": [ "120010015224008", "120010015224000", "120010015222011", "120010015224007" ], "osm_id": null, "park_name": null, "pop_low_stress": 5351, "pop_high_stress": 34808, "pop_score": 0.15372902780969891 }, "geometry": { "type": "Point", "coordinates": [ -82.384890480709998, 29.629437537426181 ] } },
{ "type": "Feature", "properties": { "id": 68, "blockid20": [ "120010016052007" ], "osm_id": null, "park_name": null, "pop_low_stress": 1392, "pop_high_stress": 16856, "pop_score": 0.082581869957285239 }, "geometry": { "type": "Point", "coordinates": [ -82.388213065573169, 29.653196348020074 ] } },
{ "type": "Feature", "properties": { "id": 69, "blockid20": [ "120010015222011", "120010015222010" ], "osm_id": null, "park_name": null, "pop_low_stress": 1953, "pop_high_stress": 19638, "pop_score": 0.099450045829514208 }, "geometry": { "type": "Point", "coordinates": [ -82.390654385340099, 29.635458674584495 ] } },
{ "type": "Feature", "properties": { "id": 70, "blockid20": [ "120010016051021", "120010015221000", "120010016051000", "120010016052020" ], "osm_id": null, "park_name": null, "pop_low_stress": 6690, "pop_high_stress": 40682, "pop_score": 0.16444619241925176 }, "geometry": { "type": "Point", "coordinates": [ -82.392661364428008, 29.64582398000238 ] } },
{ "type": "Feature", "properties": { "id": 74, "blockid20": [ "120010022192020", "120010022192021" ], "osm_id": null, "park_name": null, "pop_low_stress": 0, "pop_high_stress": 0, "pop_score": 0.0 }, "geometry": { "type": "Point", "coordinates": [ -82.4178352845923, 29.618634543353032 ] } },
{ "type": "Feature", "properties": { "id": 75, "blockid20": [ "120010005001022" ], "osm_id": 10213914403, "park_name": null, "pop_low_stress": 13, "pop_high_stress": 36591, "pop_score": 0.00035527862042578778 }, "geometry": { "type": "Point", "coordinates": [ -82.3246474, 29.6528409 ] } },
{ "type": "Feature", "properties": { "id": 76, "blockid20": [ "120010009021007" ], "osm_id": 13684831042, "park_name": null, "pop_low_stress": 11267, "pop_high_stress": 42759, "pop_score": 0.26350008185411261 }, "geometry": { "type": "Point", "coordinates": [ -82.3475736, 29.6484101 ] } },
{ "type": "Feature", "properties": { "id": 77, "blockid20": [ "120010009021007" ], "osm_id": 13684831043, "park_name": null, "pop_low_stress": 11267, "pop_high_stress": 42759, "pop_score": 0.26350008185411261 }, "geometry": { "type": "Point", "coordinates": [ -82.3474344, 29.6484748 ] } },
{ "type": "Feature", "properties": { "id": 78, "blockid20": [ "120010009011014" ], "osm_id": 8070506675, "park_name": null, "pop_low_stress": 11369, "pop_high_stress": 37568, "pop_score": 0.30262457410562182 }, "geometry": { "type": "Point", "coordinates": [ -82.3602997, 29.6451745 ] } },
{ "type": "Feature", "properties": { "id": 79, "blockid20": [ "120010015141005" ], "osm_id": 4689639749, "park_name": "Butterfly Rainforest", "pop_low_stress": 7191, "pop_high_stress": 38757, "pop_score": 0.1855406765229507 }, "geometry": { "type": "Point", "coordinates": [ -82.3699221, 29.6360248 ] } },
{ "type": "Feature", "properties": { "id": 80, "blockid20": [ "120010009011007" ], "osm_id": 8061229274, "park_name": null, "pop_low_stress": 6358, "pop_high_stress": 31788, "pop_score": 0.20001258336479175 }, "geometry": { "type": "Point", "coordinates": [ -82.3717362, 29.63868 ] } },
{ "type": "Feature", "properties": { "id": 81, "blockid20": [ "120010009011007" ], "osm_id": 8061229272, "park_name": null, "pop_low_stress": 6358, "pop_high_stress": 31788, "pop_score": 0.20001258336479175 }, "geometry": { "type": "Point", "coordinates": [ -82.3711307, 29.6385963 ] } },
{ "type": "Feature", "properties": { "id": 82, "blockid20": [ "120010017011018" ], "osm_id": 7129623694, "park_name": null, "pop_low_stress": 751, "pop_high_stress": 8009, "pop_score": 0.093769509302035217 }, "geometry": { "type": "Point", "coordinates": [ -82.3925269, 29.6788484 ] } }
]
}
