{
"type": "FeatureCollection",
"name": "sql_statement",
"crs": { "type": "name", "properties": { "name": "urn:ogc:def:crs:OGC:1.3:CRS84" } },
"features": [
{ "type": "Feature", "properties": { "id": 1, "blockid20": [ "120010002013009" ], "osm_id": null, "center_name": null, "pop_low_stress": 349, "pop_high_stress": 39020, "pop_score": 0.0089441312147616608 }, "geometry": { "type": "Point", "coordinates": [ -82.335408756921467, 29.652306122429476 ] } },
{ "type": "Feature", "properties": { "id": 2, "blockid20": [ "120010009021015" ], "osm_id": null, "center_name": null, "pop_low_stress": 11027, "pop_high_stress": 39393, "pop_score": 0.27992282892899756 }, "geometry": { "type": "Point", "coordinates": [ -82.340475002422693, 29.64240262426755 ] } },
{ "type": "Feature", "properties": { "id": 3, "blockid20": [ "120010009021015" ], "osm_id": null, "center_name": null, "pop_low_stress": 11027, "pop_high_stress": 39393, "pop_score": 0.27992282892899756 }, "geometry": { "type": "Point", "coordinates": [ -82.340597407779185, 29.644375475071264 ] } },
{ "type": "Feature", "properties": { "id": 4, "blockid20": [ "120010009021015" ], "osm_id": null, "center_name": null, "pop_low_stress": 11027, "pop_high_stress": 39393, "pop_score": 0.27992282892899756 }, "geometry": { "type": "Point", "coordinates": [ -82.342214917846761, 29.644379647706373 ] } },
{ "type": "Feature", "properties": { "id": 5, "blockid20": [ "120010009011009" ], "osm_id": null, "center_name": null, "pop_low_stress": 11827, "pop_high_stress": 55836, "pop_score": 0.21181674905079159 }, "geometry": { "type": "Point", "coordinates": [ -82.352482568605041, 29.644522199986358 ] } },
{ "type": "Feature", "properties": { "id": 6, "blockid20": [ "120010009021006" ], "osm_id": null, "center_name": null, "pop_low_stress": 11152, "pop_high_stress": 40307, "pop_score": 0.27667650780261493 }, "geometry": { "type": "Point", "coordinates": [ -82.353357792504042, 29.647728707393394 ] } },
{ "type": "Feature", "properties": { "id": 7, "blockid20": [ "120010009011000" ], "osm_id": null, "center_name": null, "pop_low_stress": 12552, "pop_high_stress": 37195, "pop_score": 0.337464712999059 }, "geometry": { "type": "Point", "coordinates": [ -82.357125739650726, 29.648707064190084 ] } },
{ "type": "Feature", "properties": { "id": 8, "blockid20": [ "120010009011013", "120010009011014" ], "osm_id": null, "center_name": null, "pop_low_stress": 11369, "pop_high_stress": 38490, "pop_score": 0.29537542218758117 }, "geometry": { "type": "Point", "coordinates": [ -82.360911409965453, 29.646393139456972 ] } },
{ "type": "Feature", "properties": { "id": 9, "blockid20": [ "120010009011008" ], "osm_id": null, "center_name": null, "pop_low_stress": 10804, "pop_high_stress": 39813, "pop_score": 0.27136864843141689 }, "geometry": { "type": "Point", "coordinates": [ -82.366203073234942, 29.641854369767298 ] } },
{ "type": "Feature", "properties": { "id": 10, "blockid20": [ "120010009011006" ], "osm_id": null, "center_name": null, "pop_low_stress": 7499, "pop_high_stress": 30895, "pop_score": 0.24272536009062956 }, "geometry": { "type": "Point", "coordinates": [ -82.370802935707914, 29.641146785872522 ] } },
{ "type": "Feature", "properties": { "id": 11, "blockid20": [ "120010009011007" ], "osm_id": null, "center_name": null, "pop_low_stress": 6358, "pop_high_stress": 31788, "pop_score": 0.20001258336479175 }, "geometry": { "type": "Point", "coordinates": [ -82.371001277745222, 29.638740538922892 ] } },
{ "type": "Feature", "properties": { "id": 12, "blockid20": [ "120010006002000" ], "osm_id": 367826632, "center_name": "Northeast Community Center", "pop_low_stress": 414, "pop_high_stress": 15454, "pop_score": 0.026789180794616282 }, "geometry": { "type": "Point", "coordinates": [ -82.3029701, 29.6590751 ] } },
{ "type": "Feature", "properties": { "id": 13, "blockid20": [ "120010009021006" ], "osm_id": 2838526683, "center_name": "Tolbert Area Council", "pop_low_stress": 11152, "pop_high_stress": 40307, "pop_score": 0.27667650780261493 }, "geometry": { "type": "Point", "coordinates": [ -82.3511326, 29.6480431 ] } }
]
}
