{
"type": "FeatureCollection",
"name": "sql_statement",
"crs": { "type": "name", "properties": { "name": "urn:ogc:def:crs:OGC:1.3:CRS84" } },
"features": [
{ "type": "Feature", "properties": { "id": 12, "blockid20": [ "120010019021015" ], "pop_low_stress": 748, "pop_high_stress": 9740, "pop_score": 0.076796714579055445 }, "geometry": { "type": "Point", "coordinates": [ -82.317829037549814, 29.691750745482224 ] } },
{ "type": "Feature", "properties": { "id": 27, "blockid20": [ "120010003021019" ], "pop_low_stress": 628, "pop_high_stress": 21234, "pop_score": 0.029575209569558256 }, "geometry": { "type": "Point", "coordinates": [ -82.324112413742768, 29.675225557854894 ] } },
{ "type": "Feature", "properties": { "id": 78, "blockid20": [ "120010016056009" ], "pop_low_stress": 2138, "pop_high_stress": 21854, "pop_score": 0.097831060675391227 }, "geometry": { "type": "Point", "coordinates": [ -82.383079041019812, 29.65353887679397 ] } },
{ "type": "Feature", "properties": { "id": 52, "blockid20": [ "120010002012013" ], "pop_low_stress": 183, "pop_high_stress": 40026, "pop_score": 0.004572028181681907 }, "geometry": { "type": "Point", "coordinates": [ -82.338657999999654, 29.654830499979955 ] } },
{ "type": "Feature", "properties": { "id": 11, "blockid20": [ "120010019021015" ], "pop_low_stress": 748, "pop_high_stress": 9740, "pop_score": 0.076796714579055445 }, "geometry": { "type": "Point", "coordinates": [ -82.318575069513571, 29.690406036280567 ] } },
{ "type": "Feature", "properties": { "id": 7, "blockid20": [ "120010005001035" ], "pop_low_stress": 94, "pop_high_stress": 26608, "pop_score": 0.0035327720986169575 }, "geometry": { "type": "Point", "coordinates": [ -82.312044982348013, 29.651477023582874 ] } },
{ "type": "Feature", "properties": { "id": 8, "blockid20": [ "120010005001034" ], "pop_low_stress": 228, "pop_high_stress": 31121, "pop_score": 0.0073262427299893964 }, "geometry": { "type": "Point", "coordinates": [ -82.314514209217648, 29.651296191489795 ] } },
{ "type": "Feature", "properties": { "id": 9, "blockid20": [ "120010006002025" ], "pop_low_stress": 335, "pop_high_stress": 23861, "pop_score": 0.014039646284732409 }, "geometry": { "type": "Point", "coordinates": [ -82.310346314199947, 29.652465770940598 ] } },
{ "type": "Feature", "properties": { "id": 84, "blockid20": [ "120010015191004" ], "pop_low_stress": 8657, "pop_high_stress": 28433, "pop_score": 0.30447015791509863 }, "geometry": { "type": "Point", "coordinates": [ -82.382945249962589, 29.618414600003764 ] } },
{ "type": "Feature", "properties": { "id": 10, "blockid20": [ "120010019021015" ], "pop_low_stress": 748, "pop_high_stress": 9740, "pop_score": 0.076796714579055445 }, "geometry": { "type": "Point", "coordinates": [ -82.318594939028415, 29.689322535510872 ] } },
{ "type": "Feature", "properties": { "id": 60, "blockid20": [ "120010009021007" ], "pop_low_stress": 11267, "pop_high_stress": 42759, "pop_score": 0.26350008185411261 }, "geometry": { "type": "Point", "coordinates": [ -82.347227776412723, 29.64657971634297 ] } },
{ "type": "Feature", "properties": { "id": 61, "blockid20": [ "120010009021007" ], "pop_low_stress": 11267, "pop_high_stress": 42759, "pop_score": 0.26350008185411261 }, "geometry": { "type": "Point", "coordinates": [ -82.347823055218214, 29.645740745832867 ] } },
{ "type": "Feature", "properties": { "id": 62, "blockid20": [ "120010009021003" ], "pop_low_stress": 9901, "pop_high_stress": 39760, "pop_score": 0.24901911468812876 }, "geometry": { "type": "Point", "coordinates": [ -82.347914889167583, 29.650902215298174 ] } },
{ "type": "Feature", "properties": { "id": 29, "blockid20": [ "120010003011003" ], "pop_low_stress": 401, "pop_high_stress": 21962, "pop_score": 0.018258810672980602 }, "geometry": { "type": "Point", "coordinates": [ -82.329901872783751, 29.673525746314898 ] } },
{ "type": "Feature", "properties": { "id": 31, "blockid20": [ "120010003012049" ], "pop_low_stress": 223, "pop_high_stress": 37211, "pop_score": 0.0059928515761468381 }, "geometry": { "type": "Point", "coordinates": [ -82.32901650000089, 29.660531000017428 ] } },
{ "type": "Feature", "properties": { "id": 32, "blockid20": [ "120010003012050" ], "pop_low_stress": 2745, "pop_high_stress": 36260, "pop_score": 0.075703254274682844 }, "geometry": { "type": "Point", "coordinates": [ -82.328268674834675, 29.659946337516221 ] } },
{ "type": "Feature", "properties": { "id": 33, "blockid20": [ "120010003012051" ], "pop_low_stress": 2703, "pop_high_stress": 37175, "pop_score": 0.072710154673839941 }, "geometry": { "type": "Point", "coordinates": [ -82.3272125875189, 29.661419900287814 ] } },
{ "type": "Feature", "properties": { "id": 34, "blockid20": [ "120010005001002" ], "pop_low_stress": 149, "pop_high_stress": 35562, "pop_score": 0.0041898655868623808 }, "geometry": { "type": "Point", "coordinates": [ -82.325607600003011, 29.658229350043644 ] } },
{ "type": "Feature", "properties": { "id": 35, "blockid20": [ "120010005001063" ], "pop_low_stress": 699, "pop_high_stress": 39287, "pop_score": 0.017792144984345965 }, "geometry": { "type": "Point", "coordinates": [ -82.326841100004287, 29.650952250062623 ] } },
{ "type": "Feature", "properties": { "id": 36, "blockid20": [ "120010002021019" ], "pop_low_stress": 155, "pop_high_stress": 37093, "pop_score": 0.0041786860054457715 }, "geometry": { "type": "Point", "coordinates": [ -82.327792791893373, 29.647026179199763 ] } },
{ "type": "Feature", "properties": { "id": 37, "blockid20": [ "120010008062002", "120010008062007" ], "pop_low_stress": 4627, "pop_high_stress": 38032, "pop_score": 0.12166070677324359 }, "geometry": { "type": "Point", "coordinates": [ -82.328387252974451, 29.637034541013556 ] } },
{ "type": "Feature", "properties": { "id": 38, "blockid20": [ "120010002013013", "120010002013009" ], "pop_low_stress": 1118, "pop_high_stress": 39773, "pop_score": 0.028109521534709477 }, "geometry": { "type": "Point", "coordinates": [ -82.335860264882726, 29.652017386129636 ] } },
{ "type": "Feature", "properties": { "id": 39, "blockid20": [ "120010003011004", "120010003011021" ], "pop_low_stress": 652, "pop_high_stress": 23749, "pop_score": 0.027453787527895911 }, "geometry": { "type": "Point", "coordinates": [ -82.330847770391443, 29.673093027963795 ] } },
{ "type": "Feature", "properties": { "id": 40, "blockid20": [ "120010003023052" ], "pop_low_stress": 376, "pop_high_stress": 20326, "pop_score": 0.018498474859785497 }, "geometry": { "type": "Point", "coordinates": [ -82.331097486482847, 29.674169865218328 ] } },
{ "type": "Feature", "properties": { "id": 53, "blockid20": [ "120010003011016" ], "pop_low_stress": 1244, "pop_high_stress": 34803, "pop_score": 0.035744045053587331 }, "geometry": { "type": "Point", "coordinates": [ -82.338640603956449, 29.667130545269433 ] } },
{ "type": "Feature", "properties": { "id": 54, "blockid20": [ "120010002013014" ], "pop_low_stress": 326, "pop_high_stress": 38123, "pop_score": 0.0085512682632531544 }, "geometry": { "type": "Point", "coordinates": [ -82.33680671792257, 29.652352983184571 ] } },
{ "type": "Feature", "properties": { "id": 55, "blockid20": [ "120010008091010" ], "pop_low_stress": 108, "pop_high_stress": 33514, "pop_score": 0.0032225338664438742 }, "geometry": { "type": "Point", "coordinates": [ -82.339846068815262, 29.636087936106215 ] } },
{ "type": "Feature", "properties": { "id": 56, "blockid20": [ "120010008091010" ], "pop_low_stress": 108, "pop_high_stress": 33514, "pop_score": 0.0032225338664438742 }, "geometry": { "type": "Point", "coordinates": [ -82.339837396359812, 29.635044293186485 ] } },
{ "type": "Feature", "properties": { "id": 57, "blockid20": [ "120010008061007", "120010008061006" ], "pop_low_stress": 3567, "pop_high_stress": 35695, "pop_score": 0.099929962179576975 }, "geometry": { "type": "Point", "coordinates": [ -82.338844058102126, 29.637195357970796 ] } },
{ "type": "Feature", "properties": { "id": 83, "blockid20": [ "120010015191004" ], "pop_low_stress": 8657, "pop_high_stress": 28433, "pop_score": 0.30447015791509863 }, "geometry": { "type": "Point", "coordinates": [ -82.381901274867957, 29.618992175009531 ] } },
{ "type": "Feature", "properties": { "id": 107, "blockid20": [ "120010005001056" ], "pop_low_stress": 29, "pop_high_stress": 39899, "pop_score": 0.00072683525902904832 }, "geometry": { "type": "Point", "coordinates": [ -82.3245222, 29.6509028 ] } },
{ "type": "Feature", "properties": { "id": 58, "blockid20": [ "120010009021012" ], "pop_low_stress": 5521, "pop_high_stress": 41751, "pop_score": 0.13223635362027256 }, "geometry": { "type": "Point", "coordinates": [ -82.341362990654858, 29.648717603023126 ] } },
{ "type": "Feature", "properties": { "id": 59, "blockid20": [ "120010010005013" ], "pop_low_stress": 6477, "pop_high_stress": 36678, "pop_score": 0.17659087191231801 }, "geometry": { "type": "Point", "coordinates": [ -82.343929355279073, 29.65233158422544 ] } },
{ "type": "Feature", "properties": { "id": 63, "blockid20": [ "120010018033017", "120010018033018", "120010018033025" ], "pop_low_stress": 1755, "pop_high_stress": 13702, "pop_score": 0.12808349146110057 }, "geometry": { "type": "Point", "coordinates": [ -82.357249778562533, 29.711229524655678 ] } },
{ "type": "Feature", "properties": { "id": 65, "blockid20": [ "120010009011001" ], "pop_low_stress": 11582, "pop_high_stress": 49165, "pop_score": 0.23557408725719517 }, "geometry": { "type": "Point", "coordinates": [ -82.364674545386904, 29.645462772343503 ] } },
{ "type": "Feature", "properties": { "id": 66, "blockid20": [ "120010015141003" ], "pop_low_stress": 12054, "pop_high_stress": 44459, "pop_score": 0.27112620616748018 }, "geometry": { "type": "Point", "coordinates": [ -82.3663509062945, 29.632421876937162 ] } },
{ "type": "Feature", "properties": { "id": 67, "blockid20": [ "120010015141005" ], "pop_low_stress": 7191, "pop_high_stress": 38757, "pop_score": 0.1855406765229507 }, "geometry": { "type": "Point", "coordinates": [ -82.366855300000353, 29.637307000004188 ] } },
{ "type": "Feature", "properties": { "id": 68, "blockid20": [ "120010016056028" ], "pop_low_stress": 349, "pop_high_stress": 23202, "pop_score": 0.015041806740798207 }, "geometry": { "type": "Point", "coordinates": [ -82.372753825023011, 29.652382238906963 ] } },
{ "type": "Feature", "properties": { "id": 69, "blockid20": [ "120010010002019" ], "pop_low_stress": 1985, "pop_high_stress": 24266, "pop_score": 0.081801697848842003 }, "geometry": { "type": "Point", "coordinates": [ -82.371447875715475, 29.651248548688589 ] } },
{ "type": "Feature", "properties": { "id": 70, "blockid20": [ "120010009011008" ], "pop_low_stress": 10804, "pop_high_stress": 39813, "pop_score": 0.27136864843141689 }, "geometry": { "type": "Point", "coordinates": [ -82.368998672809539, 29.639161203161255 ] } },
{ "type": "Feature", "properties": { "id": 73, "blockid20": [ "120010015191002", "120010015191001", "120010015153001" ], "pop_low_stress": 5830, "pop_high_stress": 34736, "pop_score": 0.16783740211883924 }, "geometry": { "type": "Point", "coordinates": [ -82.372974392687141, 29.624842414742162 ] } },
{ "type": "Feature", "properties": { "id": 74, "blockid20": [ "120010015224019" ], "pop_low_stress": 1870, "pop_high_stress": 28609, "pop_score": 0.065364046279142926 }, "geometry": { "type": "Point", "coordinates": [ -82.373327829187772, 29.627095561486723 ] } },
{ "type": "Feature", "properties": { "id": 75, "blockid20": [ "120010015191002" ], "pop_low_stress": 4008, "pop_high_stress": 30053, "pop_score": 0.13336438957841149 }, "geometry": { "type": "Point", "coordinates": [ -82.373532230394929, 29.621020880074514 ] } },
{ "type": "Feature", "properties": { "id": 76, "blockid20": [ "120010012011009" ], "pop_low_stress": 3485, "pop_high_stress": 15541, "pop_score": 0.22424554404478475 }, "geometry": { "type": "Point", "coordinates": [ -82.38761284376649, 29.702822546588276 ] } },
{ "type": "Feature", "properties": { "id": 77, "blockid20": [ "120010012011009" ], "pop_low_stress": 3485, "pop_high_stress": 15541, "pop_score": 0.22424554404478475 }, "geometry": { "type": "Point", "coordinates": [ -82.388414438006805, 29.702829624977518 ] } },
{ "type": "Feature", "properties": { "id": 85, "blockid20": [ "120010015224012" ], "pop_low_stress": 1929, "pop_high_stress": 26469, "pop_score": 0.072877705995693071 }, "geometry": { "type": "Point", "coordinates": [ -82.383435709864955, 29.619521716855779 ] } },
{ "type": "Feature", "properties": { "id": 4, "blockid20": [ "120010006003047", "120010006003063" ], "pop_low_stress": 686, "pop_high_stress": 11019, "pop_score": 0.062256103094654687 }, "geometry": { "type": "Point", "coordinates": [ -82.29540991447378, 29.647270775635263 ] } },
{ "type": "Feature", "properties": { "id": 30, "blockid20": [ "120010003012023" ], "pop_low_stress": 412, "pop_high_stress": 38998, "pop_score": 0.010564644340735422 }, "geometry": { "type": "Point", "coordinates": [ -82.329105861800571, 29.661330419707401 ] } },
{ "type": "Feature", "properties": { "id": 13, "blockid20": [ "120010004004009" ], "pop_low_stress": 542, "pop_high_stress": 15117, "pop_score": 0.03585367467090031 }, "geometry": { "type": "Point", "coordinates": [ -82.3181778973522, 29.6879545986145 ] } },
{ "type": "Feature", "properties": { "id": 1, "blockid20": [ "120010015191004" ], "pop_low_stress": 8657, "pop_high_stress": 28433, "pop_score": 0.30447015791509863 }, "geometry": { "type": "Point", "coordinates": [ -82.373096251842369, 29.613849864711 ] } },
{ "type": "Feature", "properties": { "id": 2, "blockid20": [ "120010004001003" ], "pop_low_stress": 117, "pop_high_stress": 8910, "pop_score": 0.013131313131313131 }, "geometry": { "type": "Point", "coordinates": [ -82.296174143178419, 29.680473318704632 ] } },
{ "type": "Feature", "properties": { "id": 3, "blockid20": [ "120010004002000" ], "pop_low_stress": 316, "pop_high_stress": 11878, "pop_score": 0.026603805354436773 }, "geometry": { "type": "Point", "coordinates": [ -82.297576808192659, 29.673531588712255 ] } },
{ "type": "Feature", "properties": { "id": 5, "blockid20": [ "120010006001028", "120010006001008", "120010006001009", "120010006001029", "120010006001010", "120010006001004", "120010006001007", "120010006001001" ], "pop_low_stress": 1460, "pop_high_stress": 19795, "pop_score": 0.073755998989643856 }, "geometry": { "type": "Point", "coordinates": [ -82.301087417728795, 29.662843047517672 ] } },
{ "type": "Feature", "properties": { "id": 6, "blockid20": [ "120010004001002" ], "pop_low_stress": 1710, "pop_high_stress": 10298, "pop_score": 0.16605166051660517 }, "geometry": { "type": "Point", "coordinates": [ -82.305320417088566, 29.68800796757975 ] } },
{ "type": "Feature", "properties": { "id": 71, "blockid20": [ "120010015171004" ], "pop_low_stress": 4067, "pop_high_stress": 24016, "pop_score": 0.1693454363757495 }, "geometry": { "type": "Point", "coordinates": [ -82.371688110333423, 29.615004531040491 ] } },
{ "type": "Feature", "properties": { "id": 14, "blockid20": [ "120010004004009" ], "pop_low_stress": 542, "pop_high_stress": 15117, "pop_score": 0.03585367467090031 }, "geometry": { "type": "Point", "coordinates": [ -82.318589784403414, 29.687067752620457 ] } },
{ "type": "Feature", "properties": { "id": 15, "blockid20": [ "120010004004027" ], "pop_low_stress": 486, "pop_high_stress": 18065, "pop_score": 0.026902850816495988 }, "geometry": { "type": "Point", "coordinates": [ -82.318317831388441, 29.680105802864052 ] } },
{ "type": "Feature", "properties": { "id": 16, "blockid20": [ "120010003021005" ], "pop_low_stress": 222, "pop_high_stress": 12123, "pop_score": 0.018312298935906954 }, "geometry": { "type": "Point", "coordinates": [ -82.319839558464452, 29.687733959847236 ] } },
{ "type": "Feature", "properties": { "id": 17, "blockid20": [ "120010004004025" ], "pop_low_stress": 1107, "pop_high_stress": 20900, "pop_score": 0.052966507177033495 }, "geometry": { "type": "Point", "coordinates": [ -82.320038264780692, 29.675639205166934 ] } },
{ "type": "Feature", "properties": { "id": 18, "blockid20": [ "120010004004027" ], "pop_low_stress": 486, "pop_high_stress": 18065, "pop_score": 0.026902850816495988 }, "geometry": { "type": "Point", "coordinates": [ -82.318474439121843, 29.678367518886972 ] } },
{ "type": "Feature", "properties": { "id": 19, "blockid20": [ "120010005001059" ], "pop_low_stress": 0, "pop_high_stress": 39075, "pop_score": 0.0 }, "geometry": { "type": "Point", "coordinates": [ -82.324735646577025, 29.650044572167623 ] } },
{ "type": "Feature", "properties": { "id": 20, "blockid20": [ "120010005001108" ], "pop_low_stress": 1358, "pop_high_stress": 37537, "pop_score": 0.036177638063777072 }, "geometry": { "type": "Point", "coordinates": [ -82.325162213369552, 29.64578190119747 ] } },
{ "type": "Feature", "properties": { "id": 21, "blockid20": [ "120010005001006" ], "pop_low_stress": 85, "pop_high_stress": 35464, "pop_score": 0.0023967967516354614 }, "geometry": { "type": "Point", "coordinates": [ -82.324597506225217, 29.657793361149619 ] } },
{ "type": "Feature", "properties": { "id": 22, "blockid20": [ "120010003012001" ], "pop_low_stress": 2839, "pop_high_stress": 31863, "pop_score": 0.089100210275240871 }, "geometry": { "type": "Point", "coordinates": [ -82.324866175502791, 29.665061846366509 ] } },
{ "type": "Feature", "properties": { "id": 23, "blockid20": [ "120010003021019" ], "pop_low_stress": 628, "pop_high_stress": 21234, "pop_score": 0.029575209569558256 }, "geometry": { "type": "Point", "coordinates": [ -82.320669528658243, 29.67781510502844 ] } },
{ "type": "Feature", "properties": { "id": 24, "blockid20": [ "120010003021019" ], "pop_low_stress": 628, "pop_high_stress": 21234, "pop_score": 0.029575209569558256 }, "geometry": { "type": "Point", "coordinates": [ -82.320515649144255, 29.680540173234796 ] } },
{ "type": "Feature", "properties": { "id": 25, "blockid20": [ "120010003021009" ], "pop_low_stress": 550, "pop_high_stress": 14788, "pop_score": 0.03719231809575331 }, "geometry": { "type": "Point", "coordinates": [ -82.322787899994225, 29.687907699941245 ] } },
{ "type": "Feature", "properties": { "id": 26, "blockid20": [ "120010003011001" ], "pop_low_stress": 634, "pop_high_stress": 31613, "pop_score": 0.020055040647834751 }, "geometry": { "type": "Point", "coordinates": [ -82.324190712868528, 29.67185501533627 ] } },
{ "type": "Feature", "properties": { "id": 46, "blockid20": [ "120010012031033" ], "pop_low_stress": 694, "pop_high_stress": 17318, "pop_score": 0.040073911537128998 }, "geometry": { "type": "Point", "coordinates": [ -82.340302047656905, 29.687336627858134 ] } },
{ "type": "Feature", "properties": { "id": 64, "blockid20": [ "120010012025015" ], "pop_low_stress": 2846, "pop_high_stress": 22282, "pop_score": 0.12772641594111839 }, "geometry": { "type": "Point", "coordinates": [ -82.353885724931672, 29.688904193279594 ] } },
{ "type": "Feature", "properties": { "id": 28, "blockid20": [ "120010003023040", "120010003021012" ], "pop_low_stress": 1517, "pop_high_stress": 34214, "pop_score": 0.044338574852399601 }, "geometry": { "type": "Point", "coordinates": [ -82.330686281796346, 29.678272800849157 ] } },
{ "type": "Feature", "properties": { "id": 41, "blockid20": [ "120010012031038", "120010003023044", "120010012031034", "120010012031058", "120010003023040", "120010003011007" ], "pop_low_stress": 4005, "pop_high_stress": 31206, "pop_score": 0.12834070371082484 }, "geometry": { "type": "Point", "coordinates": [ -82.338307686187932, 29.676899927152601 ] } },
{ "type": "Feature", "properties": { "id": 42, "blockid20": [ "120010012031002" ], "pop_low_stress": 1247, "pop_high_stress": 20931, "pop_score": 0.059576704409727198 }, "geometry": { "type": "Point", "coordinates": [ -82.343822065891302, 29.701637000961234 ] } },
{ "type": "Feature", "properties": { "id": 43, "blockid20": [ "120010012031016" ], "pop_low_stress": 233, "pop_high_stress": 16328, "pop_score": 0.014269965703086722 }, "geometry": { "type": "Point", "coordinates": [ -82.339588924893036, 29.689057463207227 ] } },
{ "type": "Feature", "properties": { "id": 44, "blockid20": [ "120010003022016", "120010003022013", "120010003022017", "120010003023001" ], "pop_low_stress": 1175, "pop_high_stress": 20846, "pop_score": 0.056365729636381083 }, "geometry": { "type": "Point", "coordinates": [ -82.338462434767081, 29.690833497791168 ] } },
{ "type": "Feature", "properties": { "id": 45, "blockid20": [ "120010003011010" ], "pop_low_stress": 2074, "pop_high_stress": 38509, "pop_score": 0.053857539795891869 }, "geometry": { "type": "Point", "coordinates": [ -82.33867911298448, 29.671186071351446 ] } },
{ "type": "Feature", "properties": { "id": 47, "blockid20": [ "120010011003012" ], "pop_low_stress": 2920, "pop_high_stress": 25703, "pop_score": 0.11360541571022838 }, "geometry": { "type": "Point", "coordinates": [ -82.340770636509106, 29.672829586926593 ] } },
{ "type": "Feature", "properties": { "id": 48, "blockid20": [ "120010011003025" ], "pop_low_stress": 1441, "pop_high_stress": 36114, "pop_score": 0.039901423270753723 }, "geometry": { "type": "Point", "coordinates": [ -82.339511550004147, 29.667604800059685 ] } },
{ "type": "Feature", "properties": { "id": 49, "blockid20": [ "120010010001000" ], "pop_low_stress": 574, "pop_high_stress": 36438, "pop_score": 0.015752785553543005 }, "geometry": { "type": "Point", "coordinates": [ -82.339609980302271, 29.666099182907466 ] } },
{ "type": "Feature", "properties": { "id": 72, "blockid20": [ "120010015141007" ], "pop_low_stress": 908, "pop_high_stress": 33642, "pop_score": 0.026990071933892159 }, "geometry": { "type": "Point", "coordinates": [ -82.372155924188263, 29.627672224524403 ] } },
{ "type": "Feature", "properties": { "id": 50, "blockid20": [ "120010010006017" ], "pop_low_stress": 2041, "pop_high_stress": 37444, "pop_score": 0.054508065377630595 }, "geometry": { "type": "Point", "coordinates": [ -82.340910689734557, 29.652400354050027 ] } },
{ "type": "Feature", "properties": { "id": 51, "blockid20": [ "120010010003023", "120010002012006" ], "pop_low_stress": 629, "pop_high_stress": 40822, "pop_score": 0.01540835823820489 }, "geometry": { "type": "Point", "coordinates": [ -82.339118287830985, 29.657280799635142 ] } },
{ "type": "Feature", "properties": { "id": 79, "blockid20": [ "120010015224017", "120010015224013", "120010015224015", "120010015224014", "120010015224007", "120010015224016", "120010015224010", "120010015224008", "120010015224004", "120010015224000" ], "pop_low_stress": 7541, "pop_high_stress": 34769, "pop_score": 0.21688860766775001 }, "geometry": { "type": "Point", "coordinates": [ -82.3840265381058, 29.626115665588117 ] } },
{ "type": "Feature", "properties": { "id": 80, "blockid20": [ "120010015224017" ], "pop_low_stress": 2871, "pop_high_stress": 26779, "pop_score": 0.10721087419246425 }, "geometry": { "type": "Point", "coordinates": [ -82.379558330029823, 29.621357275119589 ] } },
{ "type": "Feature", "properties": { "id": 101, "blockid20": [ "120010005004000" ], "pop_low_stress": 623, "pop_high_stress": 23501, "pop_score": 0.026509510233607082 }, "geometry": { "type": "Point", "coordinates": [ -82.309387, 29.6559569 ] } },
{ "type": "Feature", "properties": { "id": 81, "blockid20": [ "120010015224012" ], "pop_low_stress": 1929, "pop_high_stress": 26469, "pop_score": 0.072877705995693071 }, "geometry": { "type": "Point", "coordinates": [ -82.383138468173485, 29.621526691516472 ] } },
{ "type": "Feature", "properties": { "id": 82, "blockid20": [ "120010015191004" ], "pop_low_stress": 8657, "pop_high_stress": 28433, "pop_score": 0.30447015791509863 }, "geometry": { "type": "Point", "coordinates": [ -82.380759642742973, 29.61965431174778 ] } },
{ "type": "Feature", "properties": { "id": 86, "blockid20": [ "120010016056013" ], "pop_low_stress": 828, "pop_high_stress": 15429, "pop_score": 0.053665175967334243 }, "geometry": { "type": "Point", "coordinates": [ -82.384676456930904, 29.654116066742919 ] } },
{ "type": "Feature", "properties": { "id": 87, "blockid20": [ "120010011002011" ], "pop_low_stress": 1250, "pop_high_stress": 9380, "pop_score": 0.13326226012793177 }, "geometry": { "type": "Point", "coordinates": [ -82.387552716124077, 29.675914556874528 ] } },
{ "type": "Feature", "properties": { "id": 88, "blockid20": [ "120010017022000" ], "pop_low_stress": 329, "pop_high_stress": 9154, "pop_score": 0.035940572427354163 }, "geometry": { "type": "Point", "coordinates": [ -82.389494119851094, 29.67366524830264 ] } },
{ "type": "Feature", "properties": { "id": 89, "blockid20": [ "120010018112039" ], "pop_low_stress": 337, "pop_high_stress": 337, "pop_score": 1.0 }, "geometry": { "type": "Point", "coordinates": [ -82.397034775191955, 29.689017389569635 ] } },
{ "type": "Feature", "properties": { "id": 90, "blockid20": [ "120010018112000" ], "pop_low_stress": 1886, "pop_high_stress": 8578, "pop_score": 0.21986477034273724 }, "geometry": { "type": "Point", "coordinates": [ -82.390687151352935, 29.70195203691582 ] } },
{ "type": "Feature", "properties": { "id": 91, "blockid20": [ "120010016051013" ], "pop_low_stress": 365, "pop_high_stress": 5127, "pop_score": 0.07119173005656329 }, "geometry": { "type": "Point", "coordinates": [ -82.407637650001689, 29.658940750019333 ] } },
{ "type": "Feature", "properties": { "id": 92, "blockid20": [ "120010016051013" ], "pop_low_stress": 365, "pop_high_stress": 5127, "pop_score": 0.07119173005656329 }, "geometry": { "type": "Point", "coordinates": [ -82.408118664059828, 29.657664396642222 ] } },
{ "type": "Feature", "properties": { "id": 102, "blockid20": [ "120010005001035" ], "pop_low_stress": 94, "pop_high_stress": 26608, "pop_score": 0.0035327720986169575 }, "geometry": { "type": "Point", "coordinates": [ -82.3129165, 29.6515619 ] } },
{ "type": "Feature", "properties": { "id": 93, "blockid20": [ "120010016054001" ], "pop_low_stress": 3421, "pop_high_stress": 8487, "pop_score": 0.40308707434900437 }, "geometry": { "type": "Point", "coordinates": [ -82.415508784730747, 29.657942161432192 ] } },
{ "type": "Feature", "properties": { "id": 105, "blockid20": [ "120010005001058" ], "pop_low_stress": 205, "pop_high_stress": 38064, "pop_score": 0.0053856662463219844 }, "geometry": { "type": "Point", "coordinates": [ -82.3237336, 29.6498833 ] } },
{ "type": "Feature", "properties": { "id": 106, "blockid20": [ "120010005001105" ], "pop_low_stress": 161, "pop_high_stress": 37364, "pop_score": 0.0043089604967348248 }, "geometry": { "type": "Point", "coordinates": [ -82.324328249993741, 29.649163950000762 ] } },
{ "type": "Feature", "properties": { "id": 94, "blockid20": [ "120010016054003" ], "pop_low_stress": 342, "pop_high_stress": 4906, "pop_score": 0.069710558499796169 }, "geometry": { "type": "Point", "coordinates": [ -82.411289895895138, 29.656584683446717 ] } },
{ "type": "Feature", "properties": { "id": 95, "blockid20": [ "120010022173017" ], "pop_low_stress": 12, "pop_high_stress": 151, "pop_score": 0.079470198675496692 }, "geometry": { "type": "Point", "coordinates": [ -82.418575149416412, 29.654777213795125 ] } },
{ "type": "Feature", "properties": { "id": 96, "blockid20": [ "120010016054001" ], "pop_low_stress": 3421, "pop_high_stress": 8487, "pop_score": 0.40308707434900437 }, "geometry": { "type": "Point", "coordinates": [ -82.416799607080179, 29.659006827124859 ] } },
{ "type": "Feature", "properties": { "id": 97, "blockid20": [ "120010022181005" ], "pop_low_stress": 24, "pop_high_stress": 4439, "pop_score": 0.005406623113313809 }, "geometry": { "type": "Point", "coordinates": [ -82.422036311142676, 29.639437141941904 ] } },
{ "type": "Feature", "properties": { "id": 98, "blockid20": [ "120010019022011" ], "pop_low_stress": 26, "pop_high_stress": 26, "pop_score": 1.0 }, "geometry": { "type": "Point", "coordinates": [ -82.2767877, 29.6868038 ] } },
{ "type": "Feature", "properties": { "id": 99, "blockid20": [ "120010004002004", "120010004001009" ], "pop_low_stress": 447, "pop_high_stress": 14300, "pop_score": 0.031258741258741257 }, "geometry": { "type": "Point", "coordinates": [ -82.3007202, 29.6738911 ] } },
{ "type": "Feature", "properties": { "id": 100, "blockid20": [ "120010004001011" ], "pop_low_stress": 1465, "pop_high_stress": 12642, "pop_score": 0.11588356272741655 }, "geometry": { "type": "Point", "coordinates": [ -82.3028088, 29.6765389 ] } },
{ "type": "Feature", "properties": { "id": 103, "blockid20": [ "120010019021025" ], "pop_low_stress": 711, "pop_high_stress": 10682, "pop_score": 0.066560569181801157 }, "geometry": { "type": "Point", "coordinates": [ -82.320149, 29.6896762 ] } },
{ "type": "Feature", "properties": { "id": 104, "blockid20": [ "120010003021006" ], "pop_low_stress": 222, "pop_high_stress": 12803, "pop_score": 0.017339686011091149 }, "geometry": { "type": "Point", "coordinates": [ -82.3196735, 29.684294 ] } },
{ "type": "Feature", "properties": { "id": 108, "blockid20": [ "120010005001097", "120010005001090" ], "pop_low_stress": 167, "pop_high_stress": 38619, "pop_score": 0.0043242963308216167 }, "geometry": { "type": "Point", "coordinates": [ -82.3247833, 29.6463484 ] } },
{ "type": "Feature", "properties": { "id": 109, "blockid20": [ "120010005001085", "120010005001105", "120010005001077" ], "pop_low_stress": 182, "pop_high_stress": 37883, "pop_score": 0.0048042657656468604 }, "geometry": { "type": "Point", "coordinates": [ -82.3248948, 29.648557 ] } },
{ "type": "Feature", "properties": { "id": 110, "blockid20": [ "120010005001049", "120010005001048" ], "pop_low_stress": 34, "pop_high_stress": 38778, "pop_score": 0.00087678580638506369 }, "geometry": { "type": "Point", "coordinates": [ -82.324998249846175, 29.652204950111159 ] } },
{ "type": "Feature", "properties": { "id": 111, "blockid20": [ "120010005001002" ], "pop_low_stress": 149, "pop_high_stress": 35562, "pop_score": 0.0041898655868623808 }, "geometry": { "type": "Point", "coordinates": [ -82.3254125, 29.6590535 ] } },
{ "type": "Feature", "properties": { "id": 112, "blockid20": [ "120010004003007" ], "pop_low_stress": 588, "pop_high_stress": 28703, "pop_score": 0.020485663519492735 }, "geometry": { "type": "Point", "coordinates": [ -82.321958, 29.6721062 ] } },
{ "type": "Feature", "properties": { "id": 113, "blockid20": [ "120010004003007" ], "pop_low_stress": 588, "pop_high_stress": 28703, "pop_score": 0.020485663519492735 }, "geometry": { "type": "Point", "coordinates": [ -82.3207952, 29.6735767 ] } },
{ "type": "Feature", "properties": { "id": 114, "blockid20": [ "120010003021004" ], "pop_low_stress": 145, "pop_high_stress": 12193, "pop_score": 0.011892069220044288 }, "geometry": { "type": "Point", "coordinates": [ -82.3218812, 29.688090100000014 ] } },
{ "type": "Feature", "properties": { "id": 115, "blockid20": [ "120010003021012" ], "pop_low_stress": 1174, "pop_high_stress": 27497, "pop_score": 0.042695566789104265 }, "geometry": { "type": "Point", "coordinates": [ -82.330616, 29.6758462 ] } },
{ "type": "Feature", "properties": { "id": 116, "blockid20": [ "120010003012050" ], "pop_low_stress": 2745, "pop_high_stress": 36260, "pop_score": 0.075703254274682844 }, "geometry": { "type": "Point", "coordinates": [ -82.3274516, 29.6597267 ] } },
{ "type": "Feature", "properties": { "id": 117, "blockid20": [ "120010002021015" ], "pop_low_stress": 444, "pop_high_stress": 38910, "pop_score": 0.011410948342328451 }, "geometry": { "type": "Point", "coordinates": [ -82.329279449993876, 29.648101300034114 ] } },
{ "type": "Feature", "properties": { "id": 118, "blockid20": [ "120010002013016" ], "pop_low_stress": 94, "pop_high_stress": 39696, "pop_score": 0.0023679967754937524 }, "geometry": { "type": "Point", "coordinates": [ -82.3330326, 29.652176 ] } },
{ "type": "Feature", "properties": { "id": 119, "blockid20": [ "120010002013000" ], "pop_low_stress": 2251, "pop_high_stress": 40826, "pop_score": 0.055136432665458285 }, "geometry": { "type": "Point", "coordinates": [ -82.3314112, 29.652899 ] } },
{ "type": "Feature", "properties": { "id": 120, "blockid20": [ "120010002013020" ], "pop_low_stress": 1841, "pop_high_stress": 40299, "pop_score": 0.045683515719993052 }, "geometry": { "type": "Point", "coordinates": [ -82.3310136, 29.6519207 ] } },
{ "type": "Feature", "properties": { "id": 121, "blockid20": [ "120010012023003" ], "pop_low_stress": 1595, "pop_high_stress": 18988, "pop_score": 0.084000421318727619 }, "geometry": { "type": "Point", "coordinates": [ -82.3453215, 29.7037519 ] } },
{ "type": "Feature", "properties": { "id": 122, "blockid20": [ "120010012031037" ], "pop_low_stress": 110, "pop_high_stress": 17018, "pop_score": 0.0064637442707721239 }, "geometry": { "type": "Point", "coordinates": [ -82.3395211, 29.6833358 ] } },
{ "type": "Feature", "properties": { "id": 123, "blockid20": [ "120010010006018" ], "pop_low_stress": 1752, "pop_high_stress": 39658, "pop_score": 0.044177719501739876 }, "geometry": { "type": "Point", "coordinates": [ -82.3394764, 29.6525923 ] } },
{ "type": "Feature", "properties": { "id": 124, "blockid20": [ "120010002013007" ], "pop_low_stress": 1509, "pop_high_stress": 42780, "pop_score": 0.03527349228611501 }, "geometry": { "type": "Point", "coordinates": [ -82.3379638, 29.6522308 ] } },
{ "type": "Feature", "properties": { "id": 125, "blockid20": [ "120010003012034" ], "pop_low_stress": 178, "pop_high_stress": 39223, "pop_score": 0.0045381536343471942 }, "geometry": { "type": "Point", "coordinates": [ -82.3380835, 29.6618669 ] } },
{ "type": "Feature", "properties": { "id": 126, "blockid20": [ "120010002014009" ], "pop_low_stress": 6541, "pop_high_stress": 39902, "pop_score": 0.16392662021953786 }, "geometry": { "type": "Point", "coordinates": [ -82.3391248, 29.648972 ] } },
{ "type": "Feature", "properties": { "id": 127, "blockid20": [ "120010009021015" ], "pop_low_stress": 11027, "pop_high_stress": 39393, "pop_score": 0.27992282892899756 }, "geometry": { "type": "Point", "coordinates": [ -82.3406763, 29.644283400000013 ] } },
{ "type": "Feature", "properties": { "id": 128, "blockid20": [ "120010009021007" ], "pop_low_stress": 11267, "pop_high_stress": 42759, "pop_score": 0.26350008185411261 }, "geometry": { "type": "Point", "coordinates": [ -82.3451368, 29.6481684 ] } },
{ "type": "Feature", "properties": { "id": 129, "blockid20": [ "120010010005012" ], "pop_low_stress": 5623, "pop_high_stress": 37860, "pop_score": 0.14852086634970946 }, "geometry": { "type": "Point", "coordinates": [ -82.345170800055868, 29.65238305003675 ] } },
{ "type": "Feature", "properties": { "id": 130, "blockid20": [ "120010009021003" ], "pop_low_stress": 9901, "pop_high_stress": 39760, "pop_score": 0.24901911468812876 }, "geometry": { "type": "Point", "coordinates": [ -82.3491513, 29.6489688 ] } },
{ "type": "Feature", "properties": { "id": 131, "blockid20": [ "120010019082054" ], "pop_low_stress": 21, "pop_high_stress": 6218, "pop_score": 0.0033772917336764231 }, "geometry": { "type": "Point", "coordinates": [ -82.3479666, 29.7156455 ] } },
{ "type": "Feature", "properties": { "id": 132, "blockid20": [ "120010012011000" ], "pop_low_stress": 3538, "pop_high_stress": 20333, "pop_score": 0.17400285250577879 }, "geometry": { "type": "Point", "coordinates": [ -82.3669896, 29.7024429 ] } },
{ "type": "Feature", "properties": { "id": 133, "blockid20": [ "120010012021010" ], "pop_low_stress": 3389, "pop_high_stress": 24155, "pop_score": 0.14030221486234734 }, "geometry": { "type": "Point", "coordinates": [ -82.3636111, 29.6891857 ] } },
{ "type": "Feature", "properties": { "id": 134, "blockid20": [ "120010015142002" ], "pop_low_stress": 6329, "pop_high_stress": 37528, "pop_score": 0.168647409933916 }, "geometry": { "type": "Point", "coordinates": [ -82.3589138, 29.6328227 ] } },
{ "type": "Feature", "properties": { "id": 135, "blockid20": [ "120010016053006" ], "pop_low_stress": 1480, "pop_high_stress": 24171, "pop_score": 0.061230400066195026 }, "geometry": { "type": "Point", "coordinates": [ -82.3728659, 29.6510384 ] } },
{ "type": "Feature", "properties": { "id": 136, "blockid20": [ "120010015153007" ], "pop_low_stress": 3842, "pop_high_stress": 28273, "pop_score": 0.13588936441127578 }, "geometry": { "type": "Point", "coordinates": [ -82.3707627, 29.62403260000001 ] } },
{ "type": "Feature", "properties": { "id": 137, "blockid20": [ "120010015153002" ], "pop_low_stress": 6839, "pop_high_stress": 33088, "pop_score": 0.20669124758220503 }, "geometry": { "type": "Point", "coordinates": [ -82.3703711, 29.625423 ] } },
{ "type": "Feature", "properties": { "id": 138, "blockid20": [ "120010015153007" ], "pop_low_stress": 3842, "pop_high_stress": 28273, "pop_score": 0.13588936441127578 }, "geometry": { "type": "Point", "coordinates": [ -82.3723596, 29.6221907 ] } },
{ "type": "Feature", "properties": { "id": 139, "blockid20": [ "120010015223000" ], "pop_low_stress": 1235, "pop_high_stress": 36331, "pop_score": 0.033993008725330988 }, "geometry": { "type": "Point", "coordinates": [ -82.3738556, 29.633258 ] } },
{ "type": "Feature", "properties": { "id": 140, "blockid20": [ "120010015223002" ], "pop_low_stress": 3235, "pop_high_stress": 34756, "pop_score": 0.093077454252503161 }, "geometry": { "type": "Point", "coordinates": [ -82.373554, 29.6305553 ] } },
{ "type": "Feature", "properties": { "id": 141, "blockid20": [ "120010015224019" ], "pop_low_stress": 1870, "pop_high_stress": 28609, "pop_score": 0.065364046279142926 }, "geometry": { "type": "Point", "coordinates": [ -82.375592799991736, 29.626612350004205 ] } },
{ "type": "Feature", "properties": { "id": 142, "blockid20": [ "120010016051000" ], "pop_low_stress": 3705, "pop_high_stress": 28162, "pop_score": 0.13156025850436759 }, "geometry": { "type": "Point", "coordinates": [ -82.375908, 29.6494549 ] } },
{ "type": "Feature", "properties": { "id": 143, "blockid20": [ "120010016051000" ], "pop_low_stress": 3705, "pop_high_stress": 28162, "pop_score": 0.13156025850436759 }, "geometry": { "type": "Point", "coordinates": [ -82.376865500048552, 29.650425250052226 ] } },
{ "type": "Feature", "properties": { "id": 144, "blockid20": [ "120010016056028" ], "pop_low_stress": 349, "pop_high_stress": 23202, "pop_score": 0.015041806740798207 }, "geometry": { "type": "Point", "coordinates": [ -82.3741669, 29.6522014 ] } },
{ "type": "Feature", "properties": { "id": 145, "blockid20": [ "120010012011009" ], "pop_low_stress": 3485, "pop_high_stress": 15541, "pop_score": 0.22424554404478475 }, "geometry": { "type": "Point", "coordinates": [ -82.3878813, 29.7014181 ] } },
{ "type": "Feature", "properties": { "id": 146, "blockid20": [ "120010016056009" ], "pop_low_stress": 2138, "pop_high_stress": 21854, "pop_score": 0.097831060675391227 }, "geometry": { "type": "Point", "coordinates": [ -82.3817341, 29.6529779 ] } },
{ "type": "Feature", "properties": { "id": 147, "blockid20": [ "120010016056009" ], "pop_low_stress": 2138, "pop_high_stress": 21854, "pop_score": 0.097831060675391227 }, "geometry": { "type": "Point", "coordinates": [ -82.382047449997927, 29.6536435000144 ] } },
{ "type": "Feature", "properties": { "id": 148, "blockid20": [ "120010011002011" ], "pop_low_stress": 1250, "pop_high_stress": 9380, "pop_score": 0.13326226012793177 }, "geometry": { "type": "Point", "coordinates": [ -82.386715546110779, 29.674270251624851 ] } },
{ "type": "Feature", "properties": { "id": 149, "blockid20": [ "120010017021000" ], "pop_low_stress": 1380, "pop_high_stress": 9948, "pop_score": 0.13872135102533173 }, "geometry": { "type": "Point", "coordinates": [ -82.388193325135148, 29.672027275268523 ] } },
{ "type": "Feature", "properties": { "id": 150, "blockid20": [ "120010017011018" ], "pop_low_stress": 751, "pop_high_stress": 8009, "pop_score": 0.093769509302035217 }, "geometry": { "type": "Point", "coordinates": [ -82.390445450002275, 29.675698500006998 ] } },
{ "type": "Feature", "properties": { "id": 151, "blockid20": [ "120010017011018" ], "pop_low_stress": 751, "pop_high_stress": 8009, "pop_score": 0.093769509302035217 }, "geometry": { "type": "Point", "coordinates": [ -82.3901394, 29.6776698 ] } },
{ "type": "Feature", "properties": { "id": 152, "blockid20": [ "120010015221001" ], "pop_low_stress": 3036, "pop_high_stress": 19319, "pop_score": 0.15715099125213519 }, "geometry": { "type": "Point", "coordinates": [ -82.3890449, 29.6366181 ] } },
{ "type": "Feature", "properties": { "id": 153, "blockid20": [ "120010015224008" ], "pop_low_stress": 1363, "pop_high_stress": 20573, "pop_score": 0.066251883536674286 }, "geometry": { "type": "Point", "coordinates": [ -82.3919599, 29.6271672 ] } },
{ "type": "Feature", "properties": { "id": 154, "blockid20": [ "120010016055009" ], "pop_low_stress": 2825, "pop_high_stress": 15717, "pop_score": 0.17974168098237578 }, "geometry": { "type": "Point", "coordinates": [ -82.3986305, 29.6394044 ] } },
{ "type": "Feature", "properties": { "id": 155, "blockid20": [ "120010022181009" ], "pop_low_stress": 362, "pop_high_stress": 8386, "pop_score": 0.043167183400906271 }, "geometry": { "type": "Point", "coordinates": [ -82.4221191, 29.6384245 ] } }
]
}
