{
"type": "FeatureCollection",
"name": "sql_statement",
"crs": { "type": "name", "properties": { "name": "urn:ogc:def:crs:OGC:1.3:CRS84" } },
"features": [
{ "type": "Feature", "properties": { "id": 1, "blockid20": [ "120010006002025" ], "osm_id": null, "pharmacy_name": null, "pop_low_stress": 335, "pop_high_stress": 23861, "pop_score": 0.014039646284732409 }, "geometry": { "type": "Point", "coordinates": [ -82.310346314199947, 29.652465770940598 ] } },
{ "type": "Feature", "properties": { "id": 2, "blockid20": [ "120010012031016" ], "osm_id": null, "pharmacy_name": null, "pop_low_stress": 233, "pop_high_stress": 16328, "pop_score": 0.014269965703086722 }, "geometry": { "type": "Point", "coordinates": [ -82.339588924893036, 29.689057463207227 ] } },
{ "type": "Feature", "properties": { "id": 3, "blockid20": [ "120010003022017" ], "osm_id": null, "pharmacy_name": null, "pop_low_stress": 498, "pop_high_stress": 16258, "pop_score": 0.030631073932833066 }, "geometry": { "type": "Point", "coordinates": [ -82.338367224953316, 29.688950294567046 ] } },
{ "type": "Feature", "properties": { "id": 4, "blockid20": [ "120010003012009" ], "osm_id": null, "pharmacy_name": null, "pop_low_stress": 1321, "pop_high_stress": 35330, "pop_score": 0.037390319841494483 }, "geometry": { "type": "Point", "coordinates": [ -82.338803371210716, 29.666170248997155 ] } },
{ "type": "Feature", "properties": { "id": 5, "blockid20": [ "120010003011016" ], "osm_id": null, "pharmacy_name": null, "pop_low_stress": 1244, "pop_high_stress": 34803, "pop_score": 0.035744045053587331 }, "geometry": { "type": "Point", "coordinates": [ -82.338640603956449, 29.667130545269433 ] } },
{ "type": "Feature", "properties": { "id": 10, "blockid20": [ "120010006002025" ], "osm_id": 12967118541, "pharmacy_name": "Walgreens", "pop_low_stress": 335, "pop_high_stress": 23861, "pop_score": 0.014039646284732409 }, "geometry": { "type": "Point", "coordinates": [ -82.31021, 29.6523454 ] } },
{ "type": "Feature", "properties": { "id": 6, "blockid20": [ "120010008082006" ], "osm_id": null, "pharmacy_name": null, "pop_low_stress": 369, "pop_high_stress": 33541, "pop_score": 0.011001460898601712 }, "geometry": { "type": "Point", "coordinates": [ -82.338931525124977, 29.635826900263378 ] } },
{ "type": "Feature", "properties": { "id": 7, "blockid20": [ "120010015224019" ], "osm_id": null, "pharmacy_name": null, "pop_low_stress": 1870, "pop_high_stress": 28609, "pop_score": 0.065364046279142926 }, "geometry": { "type": "Point", "coordinates": [ -82.373327829187772, 29.627095561486723 ] } },
{ "type": "Feature", "properties": { "id": 8, "blockid20": [ "120010015191002" ], "osm_id": null, "pharmacy_name": null, "pop_low_stress": 4008, "pop_high_stress": 30053, "pop_score": 0.13336438957841149 }, "geometry": { "type": "Point", "coordinates": [ -82.374161999865237, 29.624549250114782 ] } },
{ "type": "Feature", "properties": { "id": 9, "blockid20": [ "120010012011009" ], "osm_id": null, "pharmacy_name": null, "pop_low_stress": 3485, "pop_high_stress": 15541, "pop_score": 0.22424554404478475 }, "geometry": { "type": "Point", "coordinates": [ -82.38761284376649, 29.702822546588276 ] } },
{ "type": "Feature", "properties": { "id": 11, "blockid20": [ "120010002021006" ], "osm_id": 13413881244, "pharmacy_name": "Wise's Pharmacy", "pop_low_stress": 2626, "pop_high_stress": 40764, "pop_score": 0.064419585909135518 }, "geometry": { "type": "Point", "coordinates": [ -82.3320503, 29.6485045 ] } },
{ "type": "Feature", "properties": { "id": 12, "blockid20": [ "120010003022017" ], "osm_id": 6507864125, "pharmacy_name": "Walgreens", "pop_low_stress": 498, "pop_high_stress": 16258, "pop_score": 0.030631073932833066 }, "geometry": { "type": "Point", "coordinates": [ -82.3384832, 29.6889739 ] } },
{ "type": "Feature", "properties": { "id": 13, "blockid20": [ "120010002014009" ], "osm_id": 10130886888, "pharmacy_name": "CVS Pharmacy", "pop_low_stress": 6541, "pop_high_stress": 39902, "pop_score": 0.16392662021953786 }, "geometry": { "type": "Point", "coordinates": [ -82.3391248, 29.648972 ] } },
{ "type": "Feature", "properties": { "id": 14, "blockid20": [ "120010016056009" ], "osm_id": 8980704167, "pharmacy_name": "Wise's Pharmacy", "pop_low_stress": 2138, "pop_high_stress": 21854, "pop_score": 0.097831060675391227 }, "geometry": { "type": "Point", "coordinates": [ -82.3822379, 29.6536343 ] } },
{ "type": "Feature", "properties": { "id": 15, "blockid20": [ "120010015224012" ], "osm_id": 8861299589, "pharmacy_name": "CVS Pharmacy", "pop_low_stress": 1929, "pop_high_stress": 26469, "pop_score": 0.072877705995693071 }, "geometry": { "type": "Point", "coordinates": [ -82.3843819, 29.62096 ] } }
]
}
