{
"type": "FeatureCollection",
"name": "sql_statement",
"crs": { "type": "name", "properties": { "name": "urn:ogc:def:crs:OGC:1.3:CRS84" } },
"features": [
{ "type": "Feature", "properties": { "id": 1, "blockid20": [ "120010014002006", "120010014002003", "120010014002004" ], "osm_id": 488961022, "service_name": "Grace Marketplace", "pop_low_stress": 1320, "pop_high_stress": 6051, "pop_score": 0.21814576103123451 }, "geometry": { "type": "Point", "coordinates": [ -82.286910328066767, 29.679772405784384 ] } },
{ "type": "Feature", "properties": { "id": 3, "blockid20": [ "120010005001076" ], "osm_id": 395183329, "service_name": "Saint Francis House", "pop_low_stress": 317, "pop_high_stress": 37670, "pop_score": 0.0084151844969471735 }, "geometry": { "type": "Point", "coordinates": [ -82.324604691813192, 29.648062107518182 ] } },
{ "type": "Feature", "properties": { "id": 5, "blockid20": [ "120010003012058" ], "osm_id": 367826608, "service_name": "Salvation Army", "pop_low_stress": 72, "pop_high_stress": 29348, "pop_score": 0.0024533187951478806 }, "geometry": { "type": "Point", "coordinates": [ -82.3242166, 29.6624583 ] } },
{ "type": "Feature", "properties": { "id": 2, "blockid20": [ "120010019022041", "120010019022055", "120010019022045", "120010019022037", "120010019022060", "120010019022034", "120010019022049", "120010019022054", "120010019022048", "120010006001004", "120010019022039", "120010019022038", "120010019022040", "120010014002003", "120010019022044", "120010019022058", "120010019022046", "120010019022057", "120010019022043", "120010019022047", "120010019022051", "120010019022056", "120010019022042", "120010019022050", "120010019022052", "120010019022053" ], "osm_id": 488961023, "service_name": "Tacachale", "pop_low_stress": 1919, "pop_high_stress": 19075, "pop_score": 0.10060288335517693 }, "geometry": { "type": "Point", "coordinates": [ -82.294575337051768, 29.670750331434096 ] } },
{ "type": "Feature", "properties": { "id": 4, "blockid20": [ "120010003012050" ], "osm_id": 859054351, "service_name": "Bread of the Mighty", "pop_low_stress": 2745, "pop_high_stress": 36260, "pop_score": 0.075703254274682844 }, "geometry": { "type": "Point", "coordinates": [ -82.328569077646932, 29.660741753668287 ] } },
{ "type": "Feature", "properties": { "id": 6, "blockid20": [ "120010008091011" ], "osm_id": 4937813037, "service_name": "Ronald McDonald House", "pop_low_stress": 757, "pop_high_stress": 37502, "pop_score": 0.020185590101861235 }, "geometry": { "type": "Point", "coordinates": [ -82.3411614, 29.6359609 ] } }
]
}
