{
"type": "FeatureCollection",
"name": "sql_statement",
"crs": { "type": "name", "properties": { "name": "urn:ogc:def:crs:OGC:1.3:CRS84" } },
"features": [
{ "type": "Feature", "properties": { "id": 1, "blockid20": [ "120010002011014" ], "osm_id": null, "college_name": null, "pop_low_stress": 2225, "pop_high_stress": 38648, "pop_score": 0.057570896294762988 }, "geometry": { "type": "Point", "coordinates": [ -82.330553456613771, 29.654772645535964 ] } },
{ "type": "Feature", "properties": { "id": 2, "blockid20": [ "120010009021000" ], "osm_id": null, "college_name": null, "pop_low_stress": 8040, "pop_high_stress": 41423, "pop_score": 0.19409506795741496 }, "geometry": { "type": "Point", "coordinates": [ -82.340442557962618, 29.65113348068914 ] } },
{ "type": "Feature", "properties": { "id": 3, "blockid20": [ "120010009021007" ], "osm_id": null, "college_name": null, "pop_low_stress": 11267, "pop_high_stress": 42759, "pop_score": 0.26350008185411261 }, "geometry": { "type": "Point", "coordinates": [ -82.348838336991705, 29.647420430165976 ] } },
{ "type": "Feature", "properties": { "id": 5, "blockid20": [ "120010009021020" ], "osm_id": 6313522876, "college_name": "University of Florida College of Public Health and Health Professions", "pop_low_stress": 13036, "pop_high_stress": 43948, "pop_score": 0.29662328206061711 }, "geometry": { "type": "Point", "coordinates": [ -82.3453101, 29.6416645 ] } },
{ "type": "Feature", "properties": { "id": 6, "blockid20": [ "120010009021020" ], "osm_id": 6313522874, "college_name": "University of Florida College of Pharmacy", "pop_low_stress": 13036, "pop_high_stress": 43948, "pop_score": 0.29662328206061711 }, "geometry": { "type": "Point", "coordinates": [ -82.3452511, 29.6417298 ] } },
{ "type": "Feature", "properties": { "id": 7, "blockid20": [ "120010009021020" ], "osm_id": 6313522875, "college_name": "University of Florida College of Nursing", "pop_low_stress": 13036, "pop_high_stress": 43948, "pop_score": 0.29662328206061711 }, "geometry": { "type": "Point", "coordinates": [ -82.3451277, 29.641725199999986 ] } },
{ "type": "Feature", "properties": { "id": 4, "blockid20": [ "120010009011000" ], "osm_id": null, "college_name": null, "pop_low_stress": 12552, "pop_high_stress": 37195, "pop_score": 0.337464712999059 }, "geometry": { "type": "Point", "coordinates": [ -82.359102788803639, 29.649075020034946 ] } }
]
}
