{
"type": "FeatureCollection",
"name": "sql_statement",
"crs": { "type": "name", "properties": { "name": "urn:ogc:def:crs:OGC:1.3:CRS84" } },
"features": [
{ "type": "Feature", "properties": { "id": 1, "blockid20": [ "120010006003005" ], "osm_id": 415145871, "school_name": "Agribusiness and Adult Education Center", "pop_low_stress": 877, "pop_high_stress": 9923, "pop_score": 0.088380530081628536 }, "geometry": { "type": "Point", "coordinates": [ -82.287550044710443, 29.653464784873503 ] } },
{ "type": "Feature", "properties": { "id": 2, "blockid20": [ "120010006003000", "120010006003005" ], "osm_id": 415145888, "school_name": "W Travis Lofton High School", "pop_low_stress": 877, "pop_high_stress": 9923, "pop_score": 0.088380530081628536 }, "geometry": { "type": "Point", "coordinates": [ -82.285964386791179, 29.655640933631897 ] } },
{ "type": "Feature", "properties": { "id": 3, "blockid20": [ "120010006001010" ], "osm_id": 490572695, "school_name": "Charles W Duval Elementary School", "pop_low_stress": 706, "pop_high_stress": 13839, "pop_score": 0.051015246766384852 }, "geometry": { "type": "Point", "coordinates": [ -82.297447178837345, 29.660647040292922 ] } },
{ "type": "Feature", "properties": { "id": 4, "blockid20": [ "120010004004005" ], "osm_id": 478534874, "school_name": "Marjorie K Rawlings Elementary School", "pop_low_stress": 2100, "pop_high_stress": 11133, "pop_score": 0.18862840204796552 }, "geometry": { "type": "Point", "coordinates": [ -82.307509899770778, 29.684326405229534 ] } },
{ "type": "Feature", "properties": { "id": 5, "blockid20": [ "120010004002026" ], "osm_id": 429167844, "school_name": "W A Metcalfe Elementary School", "pop_low_stress": 288, "pop_high_stress": 17486, "pop_score": 0.016470319112432803 }, "geometry": { "type": "Point", "coordinates": [ -82.30805675506538, 29.669178053041314 ] } },
{ "type": "Feature", "properties": { "id": 6, "blockid20": [ "120010007002000" ], "osm_id": 490204727, "school_name": "Joseph Williams Elementary School", "pop_low_stress": 928, "pop_high_stress": 22575, "pop_score": 0.041107419712070874 }, "geometry": { "type": "Point", "coordinates": [ -82.308418650260265, 29.645116872100672 ] } },
{ "type": "Feature", "properties": { "id": 7, "blockid20": [ "120010007002000" ], "osm_id": 490204728, "school_name": "Abraham Lincoln Middle School", "pop_low_stress": 928, "pop_high_stress": 22575, "pop_score": 0.041107419712070874 }, "geometry": { "type": "Point", "coordinates": [ -82.308362370784764, 29.642708503458337 ] } },
{ "type": "Feature", "properties": { "id": 8, "blockid20": [ "120010004003010" ], "osm_id": 429167843, "school_name": "Howard W Bishop Middle School", "pop_low_stress": 436, "pop_high_stress": 20180, "pop_score": 0.021605550049554015 }, "geometry": { "type": "Point", "coordinates": [ -82.312527128917324, 29.669054263306361 ] } },
{ "type": "Feature", "properties": { "id": 9, "blockid20": [ "120010019021013" ], "osm_id": 477214539, "school_name": "One Room Middle School", "pop_low_stress": 1732, "pop_high_stress": 10369, "pop_score": 0.16703635837592826 }, "geometry": { "type": "Point", "coordinates": [ -82.306710032287697, 29.688956854790938 ] } },
{ "type": "Feature", "properties": { "id": 10, "blockid20": [ "120010003011033" ], "osm_id": 435062260, "school_name": "Sidney Lanier Center", "pop_low_stress": 310, "pop_high_stress": 30457, "pop_score": 0.010178284138293331 }, "geometry": { "type": "Point", "coordinates": [ -82.32770221049249, 29.66795679565335 ] } },
{ "type": "Feature", "properties": { "id": 11, "blockid20": [ "120010008061007", "120010008061003", "120010008061000", "120010008062004" ], "osm_id": -7780407, "school_name": "P.K. Yonge Developmental Research School", "pop_low_stress": 6206, "pop_high_stress": 40005, "pop_score": 0.15513060867391576 }, "geometry": { "type": "Point", "coordinates": [ -82.333491054997566, 29.639830463816946 ] } },
{ "type": "Feature", "properties": { "id": 12, "blockid20": [ "120010002012002", "120010002012008" ], "osm_id": 488889754, "school_name": "A Quinn Jones Center", "pop_low_stress": 743, "pop_high_stress": 40784, "pop_score": 0.018217928599450765 }, "geometry": { "type": "Point", "coordinates": [ -82.336040341911229, 29.65844818476462 ] } },
{ "type": "Feature", "properties": { "id": 13, "blockid20": [ "120010003023003", "120010003023001" ], "osm_id": 478534878, "school_name": "Stephen Foster Elementary School", "pop_low_stress": 941, "pop_high_stress": 19723, "pop_score": 0.047710794503878717 }, "geometry": { "type": "Point", "coordinates": [ -82.332771670676578, 29.687585668538407 ] } },
{ "type": "Feature", "properties": { "id": 24, "blockid20": [ "120010019022057" ], "osm_id": 358727813, "school_name": "Dayspring Waldorf School", "pop_low_stress": null, "pop_high_stress": null, "pop_score": null }, "geometry": { "type": "Point", "coordinates": [ -82.29677, 29.668301 ] } },
{ "type": "Feature", "properties": { "id": 25, "blockid20": [ "120010019022040" ], "osm_id": 358727820, "school_name": "Bell Nursery School", "pop_low_stress": null, "pop_high_stress": null, "pop_score": null }, "geometry": { "type": "Point", "coordinates": [ -82.2981589, 29.6680232 ] } },
{ "type": "Feature", "properties": { "id": 26, "blockid20": [ "120010004001013" ], "osm_id": 358727817, "school_name": "Creekside Christian School", "pop_low_stress": 282, "pop_high_stress": 8711, "pop_score": 0.03237286189874871 }, "geometry": { "type": "Point", "coordinates": [ -82.3003814, 29.679412 ] } },
{ "type": "Feature", "properties": { "id": 27, "blockid20": [ "120010004002006" ], "osm_id": 358727803, "school_name": "First United Methodist Preschool", "pop_low_stress": 405, "pop_high_stress": 12291, "pop_score": 0.03295093971198438 }, "geometry": { "type": "Point", "coordinates": [ -82.3034369, 29.670801 ] } },
{ "type": "Feature", "properties": { "id": 14, "blockid20": [ "120010011003025" ], "osm_id": 128575672, "school_name": "Gainesville High School", "pop_low_stress": 1441, "pop_high_stress": 36114, "pop_score": 0.039901423270753723 }, "geometry": { "type": "Point", "coordinates": [ -82.341242484093328, 29.669131417159395 ] } },
{ "type": "Feature", "properties": { "id": 15, "blockid20": [ "120010010003014" ], "osm_id": 429922091, "school_name": "Carolyn Beatrice Parker Elementary", "pop_low_stress": 5207, "pop_high_stress": 38110, "pop_score": 0.1366308055628444 }, "geometry": { "type": "Point", "coordinates": [ -82.350529532461664, 29.656735741634321 ] } },
{ "type": "Feature", "properties": { "id": 16, "blockid20": [ "120010012025000" ], "osm_id": 384775146, "school_name": "C W Norton Elementary School", "pop_low_stress": 3578, "pop_high_stress": 22323, "pop_score": 0.16028311606862877 }, "geometry": { "type": "Point", "coordinates": [ -82.354551948068348, 29.697277021866416 ] } },
{ "type": "Feature", "properties": { "id": 17, "blockid20": [ "120010012022009", "120010012022014" ], "osm_id": 384775149, "school_name": "Glen Springs Elementary School", "pop_low_stress": 2210, "pop_high_stress": 20967, "pop_score": 0.10540372967043449 }, "geometry": { "type": "Point", "coordinates": [ -82.36479165571582, 29.683257546796657 ] } },
{ "type": "Feature", "properties": { "id": 18, "blockid20": [ "120010010004006" ], "osm_id": 418982901, "school_name": "Westwood Middle School", "pop_low_stress": 708, "pop_high_stress": 25544, "pop_score": 0.027716880676479799 }, "geometry": { "type": "Point", "coordinates": [ -82.370841127339062, 29.664333543254148 ] } },
{ "type": "Feature", "properties": { "id": 19, "blockid20": [ "120010017021021" ], "osm_id": 128575688, "school_name": "Littlewood Elementary School", "pop_low_stress": 1050, "pop_high_stress": 20021, "pop_score": 0.052444932820538435 }, "geometry": { "type": "Point", "coordinates": [ -82.374053584507536, 29.660474433816066 ] } },
{ "type": "Feature", "properties": { "id": 20, "blockid20": [ "120010018034010" ], "osm_id": 384775157, "school_name": "William S Talbot Elementary School", "pop_low_stress": 3621, "pop_high_stress": 12763, "pop_score": 0.28371072631826372 }, "geometry": { "type": "Point", "coordinates": [ -82.387140597703592, 29.70776567574519 ] } },
{ "type": "Feature", "properties": { "id": 21, "blockid20": [ "120010016051014" ], "osm_id": 376269091, "school_name": "Myra Terwilliger Elementary School", "pop_low_stress": 1170, "pop_high_stress": 10392, "pop_score": 0.1125866050808314 }, "geometry": { "type": "Point", "coordinates": [ -82.407223304501258, 29.655074901538274 ] } },
{ "type": "Feature", "properties": { "id": 22, "blockid20": [ "120010022173017" ], "osm_id": 417921732, "school_name": null, "pop_low_stress": 12, "pop_high_stress": 151, "pop_score": 0.079470198675496692 }, "geometry": { "type": "Point", "coordinates": [ -82.421899243659198, 29.654423075096879 ] } },
{ "type": "Feature", "properties": { "id": 23, "blockid20": [ "120010019021010" ], "osm_id": 358711279, "school_name": "North Florida Juvenile Detention Center", "pop_low_stress": 1455, "pop_high_stress": 9143, "pop_score": 0.15913813846658645 }, "geometry": { "type": "Point", "coordinates": [ -82.2914924, 29.6871896 ] } },
{ "type": "Feature", "properties": { "id": 28, "blockid20": [ "120010007001013" ], "osm_id": 358727809, "school_name": "Early Intervention Center", "pop_low_stress": 281, "pop_high_stress": 25444, "pop_score": 0.01104386102814023 }, "geometry": { "type": "Point", "coordinates": [ -82.3092701, 29.6483012 ] } },
{ "type": "Feature", "properties": { "id": 29, "blockid20": [ "120010005003000" ], "osm_id": 1102284204, "school_name": "Loga Springs Academy", "pop_low_stress": 288, "pop_high_stress": 20986, "pop_score": 0.01372343467073287 }, "geometry": { "type": "Point", "coordinates": [ -82.3128832, 29.6662882 ] } },
{ "type": "Feature", "properties": { "id": 30, "blockid20": [ "120010004003006" ], "osm_id": 358705277, "school_name": "Saint Patricks School", "pop_low_stress": 589, "pop_high_stress": 26252, "pop_score": 0.022436385799177207 }, "geometry": { "type": "Point", "coordinates": [ -82.318993, 29.6674675 ] } },
{ "type": "Feature", "properties": { "id": 31, "blockid20": [ "120010004003007" ], "osm_id": 358727823, "school_name": "Aunt Dots Playschool", "pop_low_stress": 588, "pop_high_stress": 28703, "pop_score": 0.020485663519492735 }, "geometry": { "type": "Point", "coordinates": [ -82.3209375, 29.6727452 ] } },
{ "type": "Feature", "properties": { "id": 32, "blockid20": [ "120010002012018" ], "osm_id": 358727800, "school_name": "Loblolly Learning Community", "pop_low_stress": 120, "pop_high_stress": 38779, "pop_score": 0.0030944583408545863 }, "geometry": { "type": "Point", "coordinates": [ -82.335937800000011, 29.6563564 ] } },
{ "type": "Feature", "properties": { "id": 33, "blockid20": [ "120010003011023" ], "osm_id": 4293864262, "school_name": "Learning Path", "pop_low_stress": 182, "pop_high_stress": 21922, "pop_score": 0.0083021622114770547 }, "geometry": { "type": "Point", "coordinates": [ -82.3311645, 29.6714173 ] } },
{ "type": "Feature", "properties": { "id": 34, "blockid20": [ "120010003011007" ], "osm_id": 358727382, "school_name": "Saint Michaels Episcopal School", "pop_low_stress": 1091, "pop_high_stress": 24737, "pop_score": 0.044103973804422526 }, "geometry": { "type": "Point", "coordinates": [ -82.3378826, 29.6724673 ] } },
{ "type": "Feature", "properties": { "id": 35, "blockid20": [ "120010012031046" ], "osm_id": 358743587, "school_name": "Gainesville Christian Academy", "pop_low_stress": 400, "pop_high_stress": 15729, "pop_score": 0.025430733040879904 }, "geometry": { "type": "Point", "coordinates": [ -82.3480033, 29.6852813 ] } },
{ "type": "Feature", "properties": { "id": 36, "blockid20": [ "120010012021010" ], "osm_id": 3985435203, "school_name": "The Sunshine House", "pop_low_stress": 3389, "pop_high_stress": 24155, "pop_score": 0.14030221486234734 }, "geometry": { "type": "Point", "coordinates": [ -82.359996, 29.6889388 ] } },
{ "type": "Feature", "properties": { "id": 37, "blockid20": [ "120010011004004" ], "osm_id": 358727786, "school_name": "Flowers Montessori School", "pop_low_stress": 889, "pop_high_stress": 18171, "pop_score": 0.048924109845357985 }, "geometry": { "type": "Point", "coordinates": [ -82.3683304, 29.6811107 ] } },
{ "type": "Feature", "properties": { "id": 38, "blockid20": [ "120010017021012" ], "osm_id": 358727832, "school_name": "A Childs Place", "pop_low_stress": 1563, "pop_high_stress": 18525, "pop_score": 0.084372469635627528 }, "geometry": { "type": "Point", "coordinates": [ -82.3759393, 29.6655227 ] } },
{ "type": "Feature", "properties": { "id": 39, "blockid20": [ "120010018034010" ], "osm_id": 358727392, "school_name": "Stepping Stones Nursery School", "pop_low_stress": 3621, "pop_high_stress": 12763, "pop_score": 0.28371072631826372 }, "geometry": { "type": "Point", "coordinates": [ -82.3834879, 29.7056323 ] } },
{ "type": "Feature", "properties": { "id": 40, "blockid20": [ "120010015221003" ], "osm_id": 358727827, "school_name": "Wee Folks School-Tanner Academy", "pop_low_stress": 9762, "pop_high_stress": 35410, "pop_score": 0.2756848347924315 }, "geometry": { "type": "Point", "coordinates": [ -82.3867724, 29.6369119 ] } },
{ "type": "Feature", "properties": { "id": 41, "blockid20": [ "120010016052007" ], "osm_id": 358708975, "school_name": "Westside School", "pop_low_stress": 1392, "pop_high_stress": 16856, "pop_score": 0.082581869957285239 }, "geometry": { "type": "Point", "coordinates": [ -82.3862172, 29.652745 ] } },
{ "type": "Feature", "properties": { "id": 42, "blockid20": [ "120010016051014" ], "osm_id": 358727830, "school_name": "A Childs Place - Number 2", "pop_low_stress": 1170, "pop_high_stress": 10392, "pop_score": 0.1125866050808314 }, "geometry": { "type": "Point", "coordinates": [ -82.4026067, 29.6555227 ] } },
{ "type": "Feature", "properties": { "id": 43, "blockid20": [ "120010017022024" ], "osm_id": 358727790, "school_name": "Brentwood School", "pop_low_stress": 1016, "pop_high_stress": 10667, "pop_score": 0.095247023530514674 }, "geometry": { "type": "Point", "coordinates": [ -82.4007535, 29.6626616 ] } }
]
}
