{
"type": "FeatureCollection",
"name": "sql_statement",
"crs": { "type": "name", "properties": { "name": "urn:ogc:def:crs:OGC:1.3:CRS84" } },
"features": [
{ "type": "Feature", "properties": { "id": 1, "blockid20": [ "120010009021003" ], "osm_id": null, "doctors_name": null, "pop_low_stress": 9901, "pop_high_stress": 39760, "pop_score": 0.24901911468812876 }, "geometry": { "type": "Point", "coordinates": [ -82.346590988637672, 29.649530559663898 ] } },
{ "type": "Feature", "properties": { "id": 3, "blockid20": [ "120010015142003" ], "osm_id": null, "doctors_name": null, "pop_low_stress": 6650, "pop_high_stress": 40523, "pop_score": 0.16410433580929348 }, "geometry": { "type": "Point", "coordinates": [ -82.360315262229392, 29.631868149016643 ] } },
{ "type": "Feature", "properties": { "id": 10, "blockid20": [ "120010002013000" ], "osm_id": 5156051819, "doctors_name": "BPL Plasma", "pop_low_stress": 2251, "pop_high_stress": 40826, "pop_score": 0.055136432665458285 }, "geometry": { "type": "Point", "coordinates": [ -82.3314032, 29.6534001 ] } },
{ "type": "Feature", "properties": { "id": 5, "blockid20": [ "120010016056026" ], "osm_id": null, "doctors_name": null, "pop_low_stress": 1493, "pop_high_stress": 12758, "pop_score": 0.11702461200815174 }, "geometry": { "type": "Point", "coordinates": [ -82.389769902604414, 29.658067054504983 ] } },
{ "type": "Feature", "properties": { "id": 2, "blockid20": [ "120010009021022" ], "osm_id": null, "doctors_name": null, "pop_low_stress": 3214, "pop_high_stress": 43393, "pop_score": 0.074067245869149395 }, "geometry": { "type": "Point", "coordinates": [ -82.349352311377871, 29.637777166964625 ] } },
{ "type": "Feature", "properties": { "id": 4, "blockid20": [ "120010015221003" ], "osm_id": null, "doctors_name": null, "pop_low_stress": 9762, "pop_high_stress": 35410, "pop_score": 0.2756848347924315 }, "geometry": { "type": "Point", "coordinates": [ -82.37378722079157, 29.63839473957378 ] } },
{ "type": "Feature", "properties": { "id": 6, "blockid20": [ "120010022181009" ], "osm_id": null, "doctors_name": null, "pop_low_stress": 362, "pop_high_stress": 8386, "pop_score": 0.043167183400906271 }, "geometry": { "type": "Point", "coordinates": [ -82.421880050010117, 29.637824100107874 ] } },
{ "type": "Feature", "properties": { "id": 7, "blockid20": [ "120010006003047" ], "osm_id": 4556026077, "doctors_name": "Alachua County Main Clinic", "pop_low_stress": 686, "pop_high_stress": 10737, "pop_score": 0.063891217286020305 }, "geometry": { "type": "Point", "coordinates": [ -82.2955044, 29.6491851 ] } },
{ "type": "Feature", "properties": { "id": 8, "blockid20": [ "120010002021008" ], "osm_id": 13098414697, "doctors_name": "Davis Integrative Medicine", "pop_low_stress": 756, "pop_high_stress": 39362, "pop_score": 0.019206341141202173 }, "geometry": { "type": "Point", "coordinates": [ -82.3287389, 29.6485074 ] } },
{ "type": "Feature", "properties": { "id": 9, "blockid20": [ "120010002013019" ], "osm_id": 367819451, "doctors_name": "Ayers Medical Plaza", "pop_low_stress": 463, "pop_high_stress": 40360, "pop_score": 0.011471754212091179 }, "geometry": { "type": "Point", "coordinates": [ -82.3325, 29.6511111 ] } },
{ "type": "Feature", "properties": { "id": 11, "blockid20": [ "120010003012042" ], "osm_id": 12297089402, "doctors_name": "Bread and Roses Women's Health Center", "pop_low_stress": 166, "pop_high_stress": 38958, "pop_score": 0.0042609990245905845 }, "geometry": { "type": "Point", "coordinates": [ -82.3382699, 29.6609145 ] } },
{ "type": "Feature", "properties": { "id": 12, "blockid20": [ "120010010001027" ], "osm_id": 5336945022, "doctors_name": "Dr. Pinkert", "pop_low_stress": 224, "pop_high_stress": 40798, "pop_score": 0.0054904652188832786 }, "geometry": { "type": "Point", "coordinates": [ -82.3428005, 29.6606968 ] } },
{ "type": "Feature", "properties": { "id": 13, "blockid20": [ "120010012011017" ], "osm_id": 4191884306, "doctors_name": "Care Spot", "pop_low_stress": 1859, "pop_high_stress": 13868, "pop_score": 0.13404961061436399 }, "geometry": { "type": "Point", "coordinates": [ -82.3884913, 29.689114 ] } },
{ "type": "Feature", "properties": { "id": 14, "blockid20": [ "120010017022000" ], "osm_id": 13421436250, "doctors_name": "Kid's Street Urgent Care", "pop_low_stress": 329, "pop_high_stress": 9154, "pop_score": 0.035940572427354163 }, "geometry": { "type": "Point", "coordinates": [ -82.3894318, 29.673564 ] } },
{ "type": "Feature", "properties": { "id": 15, "blockid20": [ "120010016056026" ], "osm_id": 8905746513, "doctors_name": "North Florida Cataract Specialists and Vision Care", "pop_low_stress": 1493, "pop_high_stress": 12758, "pop_score": 0.11702461200815174 }, "geometry": { "type": "Point", "coordinates": [ -82.3896171, 29.6592985 ] } },
{ "type": "Feature", "properties": { "id": 16, "blockid20": [ "120010016054003" ], "osm_id": 8977841823, "doctors_name": "UF Health", "pop_low_stress": 342, "pop_high_stress": 4906, "pop_score": 0.069710558499796169 }, "geometry": { "type": "Point", "coordinates": [ -82.4099406, 29.6556505 ] } },
{ "type": "Feature", "properties": { "id": 17, "blockid20": [ "120010017023018" ], "osm_id": 6470037542, "doctors_name": "INVISION, North Florida Outpatient Imaging", "pop_low_stress": 30, "pop_high_stress": 3077, "pop_score": 0.0097497562560935978 }, "geometry": { "type": "Point", "coordinates": [ -82.4126369, 29.6629052 ] } },
{ "type": "Feature", "properties": { "id": 18, "blockid20": [ "120010017023015" ], "osm_id": 5165882821, "doctors_name": "Gainesville Pediatric Medicine", "pop_low_stress": 342, "pop_high_stress": 4700, "pop_score": 0.072765957446808513 }, "geometry": { "type": "Point", "coordinates": [ -82.4112076, 29.6634586 ] } }
]
}
