{
"type": "FeatureCollection",
"name": "sql_statement",
"crs": { "type": "name", "properties": { "name": "urn:ogc:def:crs:OGC:1.3:CRS84" } },
"features": [
{ "type": "Feature", "properties": { "id": 2, "blockid20": [ "120010009011006", "120010009021008", "120010008091030", "120010009011007", "120010009021009", "120010008091017", "120010010006016", "120010008091028", "120010008091026", "120010008091019", "120010008091029", "120010009021022", "120010009021026", "120010009011013", "120010009011004", "120010009021002", "120010009011012", "120010010002037", "120010016051021", "120010009011000", "120011108001004", "120010009011005", "120010009021020", "120011108001006", "120010015221000", "120010015221003", "120010008091023", "120010009021003", "120010009011014", "120010009021017", "120010009021006", "120010010003038", "120010015141003", "120010015141000", "120010009021010", "120010009011001", "120010015152001", "120010009011009", "120010008091035", "120010009021015", "120010015142003", "120010009021007", "120010009021025", "120010009011008", "120010015141005", "120010009021001", "120010009021005", "120010002022007", "120010015152000", "120010015154002", "120010009021000", "120010009021019", "120010009021024", "120010009021016", "120010009021004", "120010009021014", "120010009021012", "120010015154003", "120010009021013", "120010009021018", "120010009021023", "120010015141004", "120010015142002", "120010009011011", "120010008091015", "120010009021021", "120010009021011", "120010008091011", "120010015141001" ], "osm_id": null, "college_name": null, "pop_low_stress": 45956, "pop_high_stress": 82698, "pop_score": 0.55570872330648868 }, "geometry": { "type": "Point", "coordinates": [ -82.355804579794693, 29.639190396005628 ] } },
{ "type": "Feature", "properties": { "id": 1, "blockid20": [ "120010004002000", "120010004002004", "120010004002002", "120010004002001", "120010004002003" ], "osm_id": null, "college_name": null, "pop_low_stress": 741, "pop_high_stress": 14300, "pop_score": 0.051818181818181819 }, "geometry": { "type": "Point", "coordinates": [ -82.299528782414129, 29.672658614137731 ] } }
]
}
